; Banux PCB solder paste program
; Source: Gerber_PCB_PCB_1048-looper_2_2025-10-07_2_2026
; Pads: 358
; Segments: 799
M17
G90
G92 X0 Y0 Z0 E0
G0 Z5 F300
; 1 PAD1
G0 X23.497 Y47.884 F1200
G1 Z0.2 F300
G92 E0
G1 X23.937 Y47.884 E0.0352 F60
G91
G1 E-0.05 F60
G90
G0 Z5 F300
; 2 PAD1
G0 X23.937 Y48.184 F1200
G1 Z0.2 F300
G92 E0
G1 X23.497 Y48.184 E0.0352 F60
G91
G1 E-0.05 F60
G90
G0 Z5 F300
; 3 PAD2
G0 X24.457 Y47.884 F1200
G1 Z0.2 F300
G92 E0
G1 X24.897 Y47.884 E0.0352 F60
G91
G1 E-0.05 F60
G90
G0 Z5 F300
; 4 PAD2
G0 X24.897 Y48.184 F1200
G1 Z0.2 F300
G92 E0
G1 X24.457 Y48.184 E0.0352 F60
G91
G1 E-0.05 F60
G90
G0 Z5 F300
; 5 PAD3
G0 X2.426 Y18.737 F1200
G1 Z0.2 F300
G92 E0
G1 X2.866 Y18.737 E0.0352 F60
G91
G1 E-0.05 F60
G90
G0 Z5 F300
; 6 PAD3
G0 X2.866 Y19.037 F1200
G1 Z0.2 F300
G92 E0
G1 X2.426 Y19.037 E0.0352 F60
G91
G1 E-0.05 F60
G90
G0 Z5 F300
; 7 PAD4
G0 X1.466 Y18.737 F1200
G1 Z0.2 F300
G92 E0
G1 X1.906 Y18.737 E0.0352 F60
G91
G1 E-0.05 F60
G90
G0 Z5 F300
; 8 PAD4
G0 X1.906 Y19.037 F1200
G1 Z0.2 F300
G92 E0
G1 X1.466 Y19.037 E0.0352 F60
G91
G1 E-0.05 F60
G90
G0 Z5 F300
; 9 PAD5
G0 X47.37 Y40.218 F1200
G1 Z0.2 F300
G92 E0
G1 X47.76 Y40.218 E0.0312 F60
G91
G1 E-0.05 F60
G90
G0 Z5 F300
; 10 PAD5
G0 X47.76 Y40.518 F1200
G1 Z0.2 F300
G92 E0
G1 X47.37 Y40.518 E0.0312 F60
G91
G1 E-0.05 F60
G90
G0 Z5 F300
; 11 PAD6
G0 X47.37 Y41.178 F1200
G1 Z0.2 F300
G92 E0
G1 X47.76 Y41.178 E0.0312 F60
G91
G1 E-0.05 F60
G90
G0 Z5 F300
; 12 PAD6
G0 X47.76 Y41.478 F1200
G1 Z0.2 F300
G92 E0
G1 X47.37 Y41.478 E0.0312 F60
G91
G1 E-0.05 F60
G90
G0 Z5 F300
; 13 PAD7
G0 X46.1 Y41.178 F1200
G1 Z0.2 F300
G92 E0
G1 X46.49 Y41.178 E0.0312 F60
G91
G1 E-0.05 F60
G90
G0 Z5 F300
; 14 PAD7
G0 X46.49 Y41.478 F1200
G1 Z0.2 F300
G92 E0
G1 X46.1 Y41.478 E0.0312 F60
G91
G1 E-0.05 F60
G90
G0 Z5 F300
; 15 PAD8
G0 X46.1 Y40.218 F1200
G1 Z0.2 F300
G92 E0
G1 X46.49 Y40.218 E0.0312 F60
G91
G1 E-0.05 F60
G90
G0 Z5 F300
; 16 PAD8
G0 X46.49 Y40.518 F1200
G1 Z0.2 F300
G92 E0
G1 X46.1 Y40.518 E0.0312 F60
G91
G1 E-0.05 F60
G90
G0 Z5 F300
; 17 PAD9
G0 X43.246 Y39.41 F1200
G1 Z0.2 F300
G92 E0
G1 X43.636 Y39.41 E0.0312 F60
G91
G1 E-0.05 F60
G90
G0 Z5 F300
; 18 PAD9
G0 X43.636 Y39.71 F1200
G1 Z0.2 F300
G92 E0
G1 X43.246 Y39.71 E0.0312 F60
G91
G1 E-0.05 F60
G90
G0 Z5 F300
; 19 PAD10
G0 X43.246 Y38.45 F1200
G1 Z0.2 F300
G92 E0
G1 X43.636 Y38.45 E0.0312 F60
G91
G1 E-0.05 F60
G90
G0 Z5 F300
; 20 PAD10
G0 X43.636 Y38.75 F1200
G1 Z0.2 F300
G92 E0
G1 X43.246 Y38.75 E0.0312 F60
G91
G1 E-0.05 F60
G90
G0 Z5 F300
; 21 PAD11
G0 X56.638 Y45.93 F1200
G1 Z0.2 F300
G92 E0
G1 X57.078 Y45.93 E0.0352 F60
G91
G1 E-0.05 F60
G90
G0 Z5 F300
; 22 PAD11
G0 X57.078 Y46.23 F1200
G1 Z0.2 F300
G92 E0
G1 X56.638 Y46.23 E0.0352 F60
G91
G1 E-0.05 F60
G90
G0 Z5 F300
; 23 PAD12
G0 X55.678 Y45.93 F1200
G1 Z0.2 F300
G92 E0
G1 X56.118 Y45.93 E0.0352 F60
G91
G1 E-0.05 F60
G90
G0 Z5 F300
; 24 PAD12
G0 X56.118 Y46.23 F1200
G1 Z0.2 F300
G92 E0
G1 X55.678 Y46.23 E0.0352 F60
G91
G1 E-0.05 F60
G90
G0 Z5 F300
; 25 PAD13
G0 X5.084 Y29.858 F1200
G1 Z0.2 F300
G92 E0
G1 X5.464 Y29.858 E0.0304 F60
G91
G1 E-0.05 F60
G90
G0 Z5 F300
; 26 PAD13
G0 X5.464 Y30.158 F1200
G1 Z0.2 F300
G92 E0
G1 X5.084 Y30.158 E0.0304 F60
G91
G1 E-0.05 F60
G90
G0 Z5 F300
; 27 PAD14
G0 X5.084 Y30.709 F1200
G1 Z0.2 F300
G92 E0
G1 X5.464 Y30.709 E0.0304 F60
G91
G1 E-0.05 F60
G90
G0 Z5 F300
; 28 PAD14
G0 X5.464 Y31.009 F1200
G1 Z0.2 F300
G92 E0
G1 X5.084 Y31.009 E0.0304 F60
G91
G1 E-0.05 F60
G90
G0 Z5 F300
; 29 PAD15
G0 X2.381 Y21.531 F1200
G1 Z0.2 F300
G92 E0
G1 X2.802 Y21.531 E0.0337 F60
G91
G1 E-0.05 F60
G90
G0 Z5 F300
; 30 PAD15
G0 X2.802 Y21.831 F1200
G1 Z0.2 F300
G92 E0
G1 X2.381 Y21.831 E0.0337 F60
G91
G1 E-0.05 F60
G90
G0 Z5 F300
; 31 PAD16
G0 X1.531 Y21.531 F1200
G1 Z0.2 F300
G92 E0
G1 X1.951 Y21.531 E0.0337 F60
G91
G1 E-0.05 F60
G90
G0 Z5 F300
; 32 PAD16
G0 X1.951 Y21.831 F1200
G1 Z0.2 F300
G92 E0
G1 X1.531 Y21.831 E0.0337 F60
G91
G1 E-0.05 F60
G90
G0 Z5 F300
; 33 PAD17
G0 X12.909 Y21.479 F1200
G1 Z0.2 F300
G92 E0
G1 X13.33 Y21.479 E0.0337 F60
G91
G1 E-0.05 F60
G90
G0 Z5 F300
; 34 PAD17
G0 X13.33 Y21.779 F1200
G1 Z0.2 F300
G92 E0
G1 X12.909 Y21.779 E0.0337 F60
G91
G1 E-0.05 F60
G90
G0 Z5 F300
; 35 PAD18
G0 X13.76 Y21.479 F1200
G1 Z0.2 F300
G92 E0
G1 X14.18 Y21.479 E0.0337 F60
G91
G1 E-0.05 F60
G90
G0 Z5 F300
; 36 PAD18
G0 X14.18 Y21.779 F1200
G1 Z0.2 F300
G92 E0
G1 X13.76 Y21.779 E0.0337 F60
G91
G1 E-0.05 F60
G90
G0 Z5 F300
; 37 PAD19
G0 X37.663 Y19.289 F1200
G1 Z0.2 F300
G92 E0
G1 X38.043 Y19.289 E0.0304 F60
G91
G1 E-0.05 F60
G90
G0 Z5 F300
; 38 PAD19
G0 X38.043 Y19.589 F1200
G1 Z0.2 F300
G92 E0
G1 X37.663 Y19.589 E0.0304 F60
G91
G1 E-0.05 F60
G90
G0 Z5 F300
; 39 PAD20
G0 X37.663 Y18.438 F1200
G1 Z0.2 F300
G92 E0
G1 X38.043 Y18.438 E0.0304 F60
G91
G1 E-0.05 F60
G90
G0 Z5 F300
; 40 PAD20
G0 X38.043 Y18.738 F1200
G1 Z0.2 F300
G92 E0
G1 X37.663 Y18.738 E0.0304 F60
G91
G1 E-0.05 F60
G90
G0 Z5 F300
; 41 PAD21
G0 X43.208 Y29.649 F1200
G1 Z0.2 F300
G92 E0
G1 X43.629 Y29.649 E0.0337 F60
G91
G1 E-0.05 F60
G90
G0 Z5 F300
; 42 PAD21
G0 X43.629 Y29.949 F1200
G1 Z0.2 F300
G92 E0
G1 X43.208 Y29.949 E0.0337 F60
G91
G1 E-0.05 F60
G90
G0 Z5 F300
; 43 PAD22
G0 X42.357 Y29.649 F1200
G1 Z0.2 F300
G92 E0
G1 X42.778 Y29.649 E0.0337 F60
G91
G1 E-0.05 F60
G90
G0 Z5 F300
; 44 PAD22
G0 X42.778 Y29.949 F1200
G1 Z0.2 F300
G92 E0
G1 X42.357 Y29.949 E0.0337 F60
G91
G1 E-0.05 F60
G90
G0 Z5 F300
; 45 PAD23
G0 X25.979 Y46.086 F1200
G1 Z0.2 F300
G92 E0
G1 X26.359 Y46.086 E0.0304 F60
G91
G1 E-0.05 F60
G90
G0 Z5 F300
; 46 PAD23
G0 X26.359 Y46.386 F1200
G1 Z0.2 F300
G92 E0
G1 X25.979 Y46.386 E0.0304 F60
G91
G1 E-0.05 F60
G90
G0 Z5 F300
; 47 PAD24
G0 X25.979 Y45.235 F1200
G1 Z0.2 F300
G92 E0
G1 X26.359 Y45.235 E0.0304 F60
G91
G1 E-0.05 F60
G90
G0 Z5 F300
; 48 PAD24
G0 X26.359 Y45.535 F1200
G1 Z0.2 F300
G92 E0
G1 X25.979 Y45.535 E0.0304 F60
G91
G1 E-0.05 F60
G90
G0 Z5 F300
; 49 PAD25
G0 X12.961 Y20.134 F1200
G1 Z0.2 F300
G92 E0
G1 X13.381 Y20.134 E0.0337 F60
G91
G1 E-0.05 F60
G90
G0 Z5 F300
; 50 PAD25
G0 X13.381 Y20.434 F1200
G1 Z0.2 F300
G92 E0
G1 X12.961 Y20.434 E0.0337 F60
G91
G1 E-0.05 F60
G90
G0 Z5 F300
; 51 PAD26
G0 X13.811 Y20.134 F1200
G1 Z0.2 F300
G92 E0
G1 X14.232 Y20.134 E0.0337 F60
G91
G1 E-0.05 F60
G90
G0 Z5 F300
; 52 PAD26
G0 X14.232 Y20.434 F1200
G1 Z0.2 F300
G92 E0
G1 X13.811 Y20.434 E0.0337 F60
G91
G1 E-0.05 F60
G90
G0 Z5 F300
; 53 PAD27
G0 X8.961 Y53.871 F1200
G1 Z0.2 F300
G92 E0
G1 X9.341 Y53.871 E0.0304 F60
G91
G1 E-0.05 F60
G90
G0 Z5 F300
; 54 PAD27
G0 X9.341 Y54.171 F1200
G1 Z0.2 F300
G92 E0
G1 X8.961 Y54.171 E0.0304 F60
G91
G1 E-0.05 F60
G90
G0 Z5 F300
; 55 PAD28
G0 X8.961 Y54.722 F1200
G1 Z0.2 F300
G92 E0
G1 X9.341 Y54.722 E0.0304 F60
G91
G1 E-0.05 F60
G90
G0 Z5 F300
; 56 PAD28
G0 X9.341 Y55.022 F1200
G1 Z0.2 F300
G92 E0
G1 X8.961 Y55.022 E0.0304 F60
G91
G1 E-0.05 F60
G90
G0 Z5 F300
; 57 PAD29
G0 X9.972 Y18.727 F1200
G1 Z0.2 F300
G92 E0
G1 X10.393 Y18.727 E0.0337 F60
G91
G1 E-0.05 F60
G90
G0 Z5 F300
; 58 PAD29
G0 X10.393 Y19.027 F1200
G1 Z0.2 F300
G92 E0
G1 X9.972 Y19.027 E0.0337 F60
G91
G1 E-0.05 F60
G90
G0 Z5 F300
; 59 PAD30
G0 X10.823 Y18.727 F1200
G1 Z0.2 F300
G92 E0
G1 X11.244 Y18.727 E0.0337 F60
G91
G1 E-0.05 F60
G90
G0 Z5 F300
; 60 PAD30
G0 X11.244 Y19.027 F1200
G1 Z0.2 F300
G92 E0
G1 X10.823 Y19.027 E0.0337 F60
G91
G1 E-0.05 F60
G90
G0 Z5 F300
; 61 PAD31
G0 X7.564 Y54.722 F1200
G1 Z0.2 F300
G92 E0
G1 X7.944 Y54.722 E0.0304 F60
G91
G1 E-0.05 F60
G90
G0 Z5 F300
; 62 PAD31
G0 X7.944 Y55.022 F1200
G1 Z0.2 F300
G92 E0
G1 X7.564 Y55.022 E0.0304 F60
G91
G1 E-0.05 F60
G90
G0 Z5 F300
; 63 PAD32
G0 X7.564 Y53.871 F1200
G1 Z0.2 F300
G92 E0
G1 X7.944 Y53.871 E0.0304 F60
G91
G1 E-0.05 F60
G90
G0 Z5 F300
; 64 PAD32
G0 X7.944 Y54.171 F1200
G1 Z0.2 F300
G92 E0
G1 X7.564 Y54.171 E0.0304 F60
G91
G1 E-0.05 F60
G90
G0 Z5 F300
; 65 PAD33
G0 X46.354 Y53.553 F1200
G1 Z0.2 F300
G92 E0
G1 X46.744 Y53.553 E0.0312 F60
G91
G1 E-0.05 F60
G90
G0 Z5 F300
; 66 PAD33
G0 X46.744 Y53.853 F1200
G1 Z0.2 F300
G92 E0
G1 X46.354 Y53.853 E0.0312 F60
G91
G1 E-0.05 F60
G90
G0 Z5 F300
; 67 PAD34
G0 X46.354 Y54.513 F1200
G1 Z0.2 F300
G92 E0
G1 X46.744 Y54.513 E0.0312 F60
G91
G1 E-0.05 F60
G90
G0 Z5 F300
; 68 PAD34
G0 X46.744 Y54.813 F1200
G1 Z0.2 F300
G92 E0
G1 X46.354 Y54.813 E0.0312 F60
G91
G1 E-0.05 F60
G90
G0 Z5 F300
; 69 PAD35
G0 X50.966 Y47.593 F1200
G1 Z0.2 F300
G92 E0
G1 X51.406 Y47.593 E0.0352 F60
G91
G1 E-0.05 F60
G90
G0 Z5 F300
; 70 PAD35
G0 X51.406 Y47.893 F1200
G1 Z0.2 F300
G92 E0
G1 X50.966 Y47.893 E0.0352 F60
G91
G1 E-0.05 F60
G90
G0 Z5 F300
; 71 PAD36
G0 X50.006 Y47.593 F1200
G1 Z0.2 F300
G92 E0
G1 X50.446 Y47.593 E0.0352 F60
G91
G1 E-0.05 F60
G90
G0 Z5 F300
; 72 PAD36
G0 X50.446 Y47.893 F1200
G1 Z0.2 F300
G92 E0
G1 X50.006 Y47.893 E0.0352 F60
G91
G1 E-0.05 F60
G90
G0 Z5 F300
; 73 PAD37
G0 X5.46 Y44.028 F1200
G1 Z0.2 F300
G92 E0
G1 X5.85 Y44.028 E0.0312 F60
G91
G1 E-0.05 F60
G90
G0 Z5 F300
; 74 PAD37
G0 X5.85 Y44.328 F1200
G1 Z0.2 F300
G92 E0
G1 X5.46 Y44.328 E0.0312 F60
G91
G1 E-0.05 F60
G90
G0 Z5 F300
; 75 PAD38
G0 X5.46 Y44.988 F1200
G1 Z0.2 F300
G92 E0
G1 X5.85 Y44.988 E0.0312 F60
G91
G1 E-0.05 F60
G90
G0 Z5 F300
; 76 PAD38
G0 X5.85 Y45.288 F1200
G1 Z0.2 F300
G92 E0
G1 X5.46 Y45.288 E0.0312 F60
G91
G1 E-0.05 F60
G90
G0 Z5 F300
; 77 PAD39
G0 X41.909 Y38.44 F1200
G1 Z0.2 F300
G92 E0
G1 X42.299 Y38.44 E0.0312 F60
G91
G1 E-0.05 F60
G90
G0 Z5 F300
; 78 PAD39
G0 X42.299 Y38.74 F1200
G1 Z0.2 F300
G92 E0
G1 X41.909 Y38.74 E0.0312 F60
G91
G1 E-0.05 F60
G90
G0 Z5 F300
; 79 PAD40
G0 X41.909 Y39.4 F1200
G1 Z0.2 F300
G92 E0
G1 X42.299 Y39.4 E0.0312 F60
G91
G1 E-0.05 F60
G90
G0 Z5 F300
; 80 PAD40
G0 X42.299 Y39.7 F1200
G1 Z0.2 F300
G92 E0
G1 X41.909 Y39.7 E0.0312 F60
G91
G1 E-0.05 F60
G90
G0 Z5 F300
; 81 PAD41
G0 X48.968 Y54.668 F1200
G1 Z0.2 F300
G92 E0
G1 X49.408 Y54.668 E0.0352 F60
G91
G1 E-0.05 F60
G90
G0 Z5 F300
; 82 PAD41
G0 X49.408 Y54.968 F1200
G1 Z0.2 F300
G92 E0
G1 X48.968 Y54.968 E0.0352 F60
G91
G1 E-0.05 F60
G90
G0 Z5 F300
; 83 PAD42
G0 X48.008 Y54.668 F1200
G1 Z0.2 F300
G92 E0
G1 X48.448 Y54.668 E0.0352 F60
G91
G1 E-0.05 F60
G90
G0 Z5 F300
; 84 PAD42
G0 X48.448 Y54.968 F1200
G1 Z0.2 F300
G92 E0
G1 X48.008 Y54.968 E0.0352 F60
G91
G1 E-0.05 F60
G90
G0 Z5 F300
; 85 PAD43
G0 X21.745 Y47.937 F1200
G1 Z0.2 F300
G92 E0
G1 X22.166 Y47.937 E0.0337 F60
G91
G1 E-0.05 F60
G90
G0 Z5 F300
; 86 PAD43
G0 X22.166 Y48.237 F1200
G1 Z0.2 F300
G92 E0
G1 X21.745 Y48.237 E0.0337 F60
G91
G1 E-0.05 F60
G90
G0 Z5 F300
; 87 PAD44
G0 X20.894 Y47.937 F1200
G1 Z0.2 F300
G92 E0
G1 X21.315 Y47.937 E0.0337 F60
G91
G1 E-0.05 F60
G90
G0 Z5 F300
; 88 PAD44
G0 X21.315 Y48.237 F1200
G1 Z0.2 F300
G92 E0
G1 X20.894 Y48.237 E0.0337 F60
G91
G1 E-0.05 F60
G90
G0 Z5 F300
; 89 PAD45
G0 X18.778 Y20.768 F1200
G1 Z0.2 F300
G92 E0
G1 X19.199 Y20.768 E0.0337 F60
G91
G1 E-0.05 F60
G90
G0 Z5 F300
; 90 PAD45
G0 X19.199 Y21.068 F1200
G1 Z0.2 F300
G92 E0
G1 X18.778 Y21.068 E0.0337 F60
G91
G1 E-0.05 F60
G90
G0 Z5 F300
; 91 PAD46
G0 X17.928 Y20.768 F1200
G1 Z0.2 F300
G92 E0
G1 X18.348 Y20.768 E0.0337 F60
G91
G1 E-0.05 F60
G90
G0 Z5 F300
; 92 PAD46
G0 X18.348 Y21.068 F1200
G1 Z0.2 F300
G92 E0
G1 X17.928 Y21.068 E0.0337 F60
G91
G1 E-0.05 F60
G90
G0 Z5 F300
; 93 PAD47
G0 X4.452 Y20.134 F1200
G1 Z0.2 F300
G92 E0
G1 X4.872 Y20.134 E0.0337 F60
G91
G1 E-0.05 F60
G90
G0 Z5 F300
; 94 PAD47
G0 X4.872 Y20.434 F1200
G1 Z0.2 F300
G92 E0
G1 X4.452 Y20.434 E0.0337 F60
G91
G1 E-0.05 F60
G90
G0 Z5 F300
; 95 PAD48
G0 X5.302 Y20.134 F1200
G1 Z0.2 F300
G92 E0
G1 X5.723 Y20.134 E0.0337 F60
G91
G1 E-0.05 F60
G90
G0 Z5 F300
; 96 PAD48
G0 X5.723 Y20.434 F1200
G1 Z0.2 F300
G92 E0
G1 X5.302 Y20.434 E0.0337 F60
G91
G1 E-0.05 F60
G90
G0 Z5 F300
; 97 PAD49
G0 X36.139 Y19.289 F1200
G1 Z0.2 F300
G92 E0
G1 X36.519 Y19.289 E0.0304 F60
G91
G1 E-0.05 F60
G90
G0 Z5 F300
; 98 PAD49
G0 X36.519 Y19.589 F1200
G1 Z0.2 F300
G92 E0
G1 X36.139 Y19.589 E0.0304 F60
G91
G1 E-0.05 F60
G90
G0 Z5 F300
; 99 PAD50
G0 X36.139 Y18.438 F1200
G1 Z0.2 F300
G92 E0
G1 X36.519 Y18.438 E0.0304 F60
G91
G1 E-0.05 F60
G90
G0 Z5 F300
; 100 PAD50
G0 X36.519 Y18.738 F1200
G1 Z0.2 F300
G92 E0
G1 X36.139 Y18.738 E0.0304 F60
G91
G1 E-0.05 F60
G90
G0 Z5 F300
; 101 PAD51
G0 X45.084 Y57.561 F1200
G1 Z0.2 F300
G92 E0
G1 X45.474 Y57.561 E0.0312 F60
G91
G1 E-0.05 F60
G90
G0 Z5 F300
; 102 PAD51
G0 X45.474 Y57.861 F1200
G1 Z0.2 F300
G92 E0
G1 X45.084 Y57.861 E0.0312 F60
G91
G1 E-0.05 F60
G90
G0 Z5 F300
; 103 PAD52
G0 X45.084 Y56.601 F1200
G1 Z0.2 F300
G92 E0
G1 X45.474 Y56.601 E0.0312 F60
G91
G1 E-0.05 F60
G90
G0 Z5 F300
; 104 PAD52
G0 X45.474 Y56.901 F1200
G1 Z0.2 F300
G92 E0
G1 X45.084 Y56.901 E0.0312 F60
G91
G1 E-0.05 F60
G90
G0 Z5 F300
; 105 PAD53
G0 X48.968 Y58.478 F1200
G1 Z0.2 F300
G92 E0
G1 X49.408 Y58.478 E0.0352 F60
G91
G1 E-0.05 F60
G90
G0 Z5 F300
; 106 PAD53
G0 X49.408 Y58.778 F1200
G1 Z0.2 F300
G92 E0
G1 X48.968 Y58.778 E0.0352 F60
G91
G1 E-0.05 F60
G90
G0 Z5 F300
; 107 PAD54
G0 X48.008 Y58.478 F1200
G1 Z0.2 F300
G92 E0
G1 X48.448 Y58.478 E0.0352 F60
G91
G1 E-0.05 F60
G90
G0 Z5 F300
; 108 PAD54
G0 X48.448 Y58.778 F1200
G1 Z0.2 F300
G92 E0
G1 X48.008 Y58.778 E0.0352 F60
G91
G1 E-0.05 F60
G90
G0 Z5 F300
; 109 PAD55
G0 X51 Y46.413 F1200
G1 Z0.2 F300
G92 E0
G1 X51.44 Y46.413 E0.0352 F60
G91
G1 E-0.05 F60
G90
G0 Z5 F300
; 110 PAD55
G0 X51.44 Y46.713 F1200
G1 Z0.2 F300
G92 E0
G1 X51 Y46.713 E0.0352 F60
G91
G1 E-0.05 F60
G90
G0 Z5 F300
; 111 PAD56
G0 X50.04 Y46.413 F1200
G1 Z0.2 F300
G92 E0
G1 X50.48 Y46.413 E0.0352 F60
G91
G1 E-0.05 F60
G90
G0 Z5 F300
; 112 PAD56
G0 X50.48 Y46.713 F1200
G1 Z0.2 F300
G92 E0
G1 X50.04 Y46.713 E0.0352 F60
G91
G1 E-0.05 F60
G90
G0 Z5 F300
; 113 PAD57
G0 X56.768 Y55.077 F1200
G1 Z0.2 F300
G92 E0
G1 X57.158 Y55.077 E0.0312 F60
G91
G1 E-0.05 F60
G90
G0 Z5 F300
; 114 PAD57
G0 X57.158 Y55.377 F1200
G1 Z0.2 F300
G92 E0
G1 X56.768 Y55.377 E0.0312 F60
G91
G1 E-0.05 F60
G90
G0 Z5 F300
; 115 PAD58
G0 X56.768 Y56.037 F1200
G1 Z0.2 F300
G92 E0
G1 X57.158 Y56.037 E0.0312 F60
G91
G1 E-0.05 F60
G90
G0 Z5 F300
; 116 PAD58
G0 X57.158 Y56.337 F1200
G1 Z0.2 F300
G92 E0
G1 X56.768 Y56.337 E0.0312 F60
G91
G1 E-0.05 F60
G90
G0 Z5 F300
; 117 PAD59
G0 X16.2 Y38.847 F1200
G1 Z0.2 F300
G92 E0
G1 X16.58 Y38.847 E0.0304 F60
G91
G1 E-0.05 F60
G90
G0 Z5 F300
; 118 PAD59
G0 X16.58 Y39.147 F1200
G1 Z0.2 F300
G92 E0
G1 X16.2 Y39.147 E0.0304 F60
G91
G1 E-0.05 F60
G90
G0 Z5 F300
; 119 PAD60
G0 X16.2 Y37.996 F1200
G1 Z0.2 F300
G92 E0
G1 X16.58 Y37.996 E0.0304 F60
G91
G1 E-0.05 F60
G90
G0 Z5 F300
; 120 PAD60
G0 X16.58 Y38.296 F1200
G1 Z0.2 F300
G92 E0
G1 X16.2 Y38.296 E0.0304 F60
G91
G1 E-0.05 F60
G90
G0 Z5 F300
; 121 PAD61
G0 X10.823 Y20.124 F1200
G1 Z0.2 F300
G92 E0
G1 X11.244 Y20.124 E0.0337 F60
G91
G1 E-0.05 F60
G90
G0 Z5 F300
; 122 PAD61
G0 X11.244 Y20.424 F1200
G1 Z0.2 F300
G92 E0
G1 X10.823 Y20.424 E0.0337 F60
G91
G1 E-0.05 F60
G90
G0 Z5 F300
; 123 PAD62
G0 X9.972 Y20.124 F1200
G1 Z0.2 F300
G92 E0
G1 X10.393 Y20.124 E0.0337 F60
G91
G1 E-0.05 F60
G90
G0 Z5 F300
; 124 PAD62
G0 X10.393 Y20.424 F1200
G1 Z0.2 F300
G92 E0
G1 X9.972 Y20.424 E0.0337 F60
G91
G1 E-0.05 F60
G90
G0 Z5 F300
; 125 PAD63
G0 X51 Y48.826 F1200
G1 Z0.2 F300
G92 E0
G1 X51.44 Y48.826 E0.0352 F60
G91
G1 E-0.05 F60
G90
G0 Z5 F300
; 126 PAD63
G0 X51.44 Y49.126 F1200
G1 Z0.2 F300
G92 E0
G1 X51 Y49.126 E0.0352 F60
G91
G1 E-0.05 F60
G90
G0 Z5 F300
; 127 PAD64
G0 X50.04 Y48.826 F1200
G1 Z0.2 F300
G92 E0
G1 X50.48 Y48.826 E0.0352 F60
G91
G1 E-0.05 F60
G90
G0 Z5 F300
; 128 PAD64
G0 X50.48 Y49.126 F1200
G1 Z0.2 F300
G92 E0
G1 X50.04 Y49.126 E0.0352 F60
G91
G1 E-0.05 F60
G90
G0 Z5 F300
; 129 PAD65
G0 X56.789 Y20.292 F1200
G1 Z0.2 F300
G92 E0
G1 X57.169 Y20.292 E0.0304 F60
G91
G1 E-0.05 F60
G90
G0 Z5 F300
; 130 PAD65
G0 X57.169 Y20.592 F1200
G1 Z0.2 F300
G92 E0
G1 X56.789 Y20.592 E0.0304 F60
G91
G1 E-0.05 F60
G90
G0 Z5 F300
; 131 PAD66
G0 X56.789 Y21.142 F1200
G1 Z0.2 F300
G92 E0
G1 X57.169 Y21.142 E0.0304 F60
G91
G1 E-0.05 F60
G90
G0 Z5 F300
; 132 PAD66
G0 X57.169 Y21.442 F1200
G1 Z0.2 F300
G92 E0
G1 X56.789 Y21.442 E0.0304 F60
G91
G1 E-0.05 F60
G90
G0 Z5 F300
; 133 PAD67
G0 X47.883 Y56.147 F1200
G1 Z0.2 F300
G92 E0
G1 X48.263 Y56.147 E0.0304 F60
G91
G1 E-0.05 F60
G90
G0 Z5 F300
; 134 PAD67
G0 X48.263 Y56.447 F1200
G1 Z0.2 F300
G92 E0
G1 X47.883 Y56.447 E0.0304 F60
G91
G1 E-0.05 F60
G90
G0 Z5 F300
; 135 PAD68
G0 X47.883 Y56.998 F1200
G1 Z0.2 F300
G92 E0
G1 X48.263 Y56.998 E0.0304 F60
G91
G1 E-0.05 F60
G90
G0 Z5 F300
; 136 PAD68
G0 X48.263 Y57.298 F1200
G1 Z0.2 F300
G92 E0
G1 X47.883 Y57.298 E0.0304 F60
G91
G1 E-0.05 F60
G90
G0 Z5 F300
; 137 PAD69
G0 X18.778 Y19.371 F1200
G1 Z0.2 F300
G92 E0
G1 X19.199 Y19.371 E0.0337 F60
G91
G1 E-0.05 F60
G90
G0 Z5 F300
; 138 PAD69
G0 X19.199 Y19.671 F1200
G1 Z0.2 F300
G92 E0
G1 X18.778 Y19.671 E0.0337 F60
G91
G1 E-0.05 F60
G90
G0 Z5 F300
; 139 PAD70
G0 X17.928 Y19.371 F1200
G1 Z0.2 F300
G92 E0
G1 X18.348 Y19.371 E0.0337 F60
G91
G1 E-0.05 F60
G90
G0 Z5 F300
; 140 PAD70
G0 X18.348 Y19.671 F1200
G1 Z0.2 F300
G92 E0
G1 X17.928 Y19.671 E0.0337 F60
G91
G1 E-0.05 F60
G90
G0 Z5 F300
; 141 PAD71
G0 X2.381 Y20.134 F1200
G1 Z0.2 F300
G92 E0
G1 X2.802 Y20.134 E0.0337 F60
G91
G1 E-0.05 F60
G90
G0 Z5 F300
; 142 PAD71
G0 X2.802 Y20.434 F1200
G1 Z0.2 F300
G92 E0
G1 X2.381 Y20.434 E0.0337 F60
G91
G1 E-0.05 F60
G90
G0 Z5 F300
; 143 PAD72
G0 X1.531 Y20.134 F1200
G1 Z0.2 F300
G92 E0
G1 X1.951 Y20.134 E0.0337 F60
G91
G1 E-0.05 F60
G90
G0 Z5 F300
; 144 PAD72
G0 X1.951 Y20.434 F1200
G1 Z0.2 F300
G92 E0
G1 X1.531 Y20.434 E0.0337 F60
G91
G1 E-0.05 F60
G90
G0 Z5 F300
; 145 PAD73
G0 X0.388 Y49.471 F1200
G1 Z0.2 F300
G92 E0
G1 X0.808 Y49.471 E0.0337 F60
G91
G1 E-0.05 F60
G90
G0 Z5 F300
; 146 PAD73
G0 X0.808 Y49.771 F1200
G1 Z0.2 F300
G92 E0
G1 X0.388 Y49.771 E0.0337 F60
G91
G1 E-0.05 F60
G90
G0 Z5 F300
; 147 PAD74
G0 X1.238 Y49.471 F1200
G1 Z0.2 F300
G92 E0
G1 X1.659 Y49.471 E0.0337 F60
G91
G1 E-0.05 F60
G90
G0 Z5 F300
; 148 PAD74
G0 X1.659 Y49.771 F1200
G1 Z0.2 F300
G92 E0
G1 X1.238 Y49.771 E0.0337 F60
G91
G1 E-0.05 F60
G90
G0 Z5 F300
; 149 PAD75
G0 X16.2 Y32.116 F1200
G1 Z0.2 F300
G92 E0
G1 X16.58 Y32.116 E0.0304 F60
G91
G1 E-0.05 F60
G90
G0 Z5 F300
; 150 PAD75
G0 X16.58 Y32.416 F1200
G1 Z0.2 F300
G92 E0
G1 X16.2 Y32.416 E0.0304 F60
G91
G1 E-0.05 F60
G90
G0 Z5 F300
; 151 PAD76
G0 X16.2 Y31.265 F1200
G1 Z0.2 F300
G92 E0
G1 X16.58 Y31.265 E0.0304 F60
G91
G1 E-0.05 F60
G90
G0 Z5 F300
; 152 PAD76
G0 X16.58 Y31.565 F1200
G1 Z0.2 F300
G92 E0
G1 X16.2 Y31.565 E0.0304 F60
G91
G1 E-0.05 F60
G90
G0 Z5 F300
; 153 PAD77
G0 X5.285 Y18.778 F1200
G1 Z0.2 F300
G92 E0
G1 X5.706 Y18.778 E0.0337 F60
G91
G1 E-0.05 F60
G90
G0 Z5 F300
; 154 PAD77
G0 X5.706 Y19.078 F1200
G1 Z0.2 F300
G92 E0
G1 X5.285 Y19.078 E0.0337 F60
G91
G1 E-0.05 F60
G90
G0 Z5 F300
; 155 PAD78
G0 X4.435 Y18.778 F1200
G1 Z0.2 F300
G92 E0
G1 X4.855 Y18.778 E0.0337 F60
G91
G1 E-0.05 F60
G90
G0 Z5 F300
; 156 PAD78
G0 X4.855 Y19.078 F1200
G1 Z0.2 F300
G92 E0
G1 X4.435 Y19.078 E0.0337 F60
G91
G1 E-0.05 F60
G90
G0 Z5 F300
; 157 PAD79
G0 X1.238 Y48.201 F1200
G1 Z0.2 F300
G92 E0
G1 X1.659 Y48.201 E0.0337 F60
G91
G1 E-0.05 F60
G90
G0 Z5 F300
; 158 PAD79
G0 X1.659 Y48.501 F1200
G1 Z0.2 F300
G92 E0
G1 X1.238 Y48.501 E0.0337 F60
G91
G1 E-0.05 F60
G90
G0 Z5 F300
; 159 PAD80
G0 X0.388 Y48.201 F1200
G1 Z0.2 F300
G92 E0
G1 X0.808 Y48.201 E0.0337 F60
G91
G1 E-0.05 F60
G90
G0 Z5 F300
; 160 PAD80
G0 X0.808 Y48.501 F1200
G1 Z0.2 F300
G92 E0
G1 X0.388 Y48.501 E0.0337 F60
G91
G1 E-0.05 F60
G90
G0 Z5 F300
; 161 PAD81
G0 X7.689 Y52.519 F1200
G1 Z0.2 F300
G92 E0
G1 X8.129 Y52.519 E0.0352 F60
G91
G1 E-0.05 F60
G90
G0 Z5 F300
; 162 PAD81
G0 X8.129 Y52.819 F1200
G1 Z0.2 F300
G92 E0
G1 X7.689 Y52.819 E0.0352 F60
G91
G1 E-0.05 F60
G90
G0 Z5 F300
; 163 PAD82
G0 X8.649 Y52.519 F1200
G1 Z0.2 F300
G92 E0
G1 X9.089 Y52.519 E0.0352 F60
G91
G1 E-0.05 F60
G90
G0 Z5 F300
; 164 PAD82
G0 X9.089 Y52.819 F1200
G1 Z0.2 F300
G92 E0
G1 X8.649 Y52.819 E0.0352 F60
G91
G1 E-0.05 F60
G90
G0 Z5 F300
; 165 PAD83
G0 X58.232 Y20.995 F1200
G1 Z0.2 F300
G92 E0
G1 X58.622 Y20.995 E0.0312 F60
G91
G1 E-0.05 F60
G90
G0 Z5 F300
; 166 PAD83
G0 X58.622 Y21.295 F1200
G1 Z0.2 F300
G92 E0
G1 X58.232 Y21.295 E0.0312 F60
G91
G1 E-0.05 F60
G90
G0 Z5 F300
; 167 PAD84
G0 X58.232 Y20.035 F1200
G1 Z0.2 F300
G92 E0
G1 X58.622 Y20.035 E0.0312 F60
G91
G1 E-0.05 F60
G90
G0 Z5 F300
; 168 PAD84
G0 X58.622 Y20.335 F1200
G1 Z0.2 F300
G92 E0
G1 X58.232 Y20.335 E0.0312 F60
G91
G1 E-0.05 F60
G90
G0 Z5 F300
; 169 PAD85
G0 X46.936 Y37.904 F1200
G1 Z0.2 F300
G92 E0
G1 X47.376 Y37.904 E0.0352 F60
G91
G1 E-0.05 F60
G90
G0 Z5 F300
; 170 PAD85
G0 X47.376 Y38.204 F1200
G1 Z0.2 F300
G92 E0
G1 X46.936 Y38.204 E0.0352 F60
G91
G1 E-0.05 F60
G90
G0 Z5 F300
; 171 PAD86
G0 X45.976 Y37.904 F1200
G1 Z0.2 F300
G92 E0
G1 X46.416 Y37.904 E0.0352 F60
G91
G1 E-0.05 F60
G90
G0 Z5 F300
; 172 PAD86
G0 X46.416 Y38.204 F1200
G1 Z0.2 F300
G92 E0
G1 X45.976 Y38.204 E0.0352 F60
G91
G1 E-0.05 F60
G90
G0 Z5 F300
; 173 PAD87
G0 X44.77 Y20.035 F1200
G1 Z0.2 F300
G92 E0
G1 X45.16 Y20.035 E0.0312 F60
G91
G1 E-0.05 F60
G90
G0 Z5 F300
; 174 PAD87
G0 X45.16 Y20.335 F1200
G1 Z0.2 F300
G92 E0
G1 X44.77 Y20.335 E0.0312 F60
G91
G1 E-0.05 F60
G90
G0 Z5 F300
; 175 PAD88
G0 X44.77 Y20.995 F1200
G1 Z0.2 F300
G92 E0
G1 X45.16 Y20.995 E0.0312 F60
G91
G1 E-0.05 F60
G90
G0 Z5 F300
; 176 PAD88
G0 X45.16 Y21.295 F1200
G1 Z0.2 F300
G92 E0
G1 X44.77 Y21.295 E0.0312 F60
G91
G1 E-0.05 F60
G90
G0 Z5 F300
; 177 PAD89
G0 X12.896 Y18.737 F1200
G1 Z0.2 F300
G92 E0
G1 X13.336 Y18.737 E0.0352 F60
G91
G1 E-0.05 F60
G90
G0 Z5 F300
; 178 PAD89
G0 X13.336 Y19.037 F1200
G1 Z0.2 F300
G92 E0
G1 X12.896 Y19.037 E0.0352 F60
G91
G1 E-0.05 F60
G90
G0 Z5 F300
; 179 PAD90
G0 X13.856 Y18.737 F1200
G1 Z0.2 F300
G92 E0
G1 X14.296 Y18.737 E0.0352 F60
G91
G1 E-0.05 F60
G90
G0 Z5 F300
; 180 PAD90
G0 X14.296 Y19.037 F1200
G1 Z0.2 F300
G92 E0
G1 X13.856 Y19.037 E0.0352 F60
G91
G1 E-0.05 F60
G90
G0 Z5 F300
; 181 PAD91
G0 X51 Y45.143 F1200
G1 Z0.2 F300
G92 E0
G1 X51.44 Y45.143 E0.0352 F60
G91
G1 E-0.05 F60
G90
G0 Z5 F300
; 182 PAD91
G0 X51.44 Y45.443 F1200
G1 Z0.2 F300
G92 E0
G1 X51 Y45.443 E0.0352 F60
G91
G1 E-0.05 F60
G90
G0 Z5 F300
; 183 PAD92
G0 X50.04 Y45.143 F1200
G1 Z0.2 F300
G92 E0
G1 X50.48 Y45.143 E0.0352 F60
G91
G1 E-0.05 F60
G90
G0 Z5 F300
; 184 PAD92
G0 X50.48 Y45.443 F1200
G1 Z0.2 F300
G92 E0
G1 X50.04 Y45.443 E0.0352 F60
G91
G1 E-0.05 F60
G90
G0 Z5 F300
; 185 PAD93
G0 X51 Y43.873 F1200
G1 Z0.2 F300
G92 E0
G1 X51.44 Y43.873 E0.0352 F60
G91
G1 E-0.05 F60
G90
G0 Z5 F300
; 186 PAD93
G0 X51.44 Y44.173 F1200
G1 Z0.2 F300
G92 E0
G1 X51 Y44.173 E0.0352 F60
G91
G1 E-0.05 F60
G90
G0 Z5 F300
; 187 PAD94
G0 X50.04 Y43.873 F1200
G1 Z0.2 F300
G92 E0
G1 X50.48 Y43.873 E0.0352 F60
G91
G1 E-0.05 F60
G90
G0 Z5 F300
; 188 PAD94
G0 X50.48 Y44.173 F1200
G1 Z0.2 F300
G92 E0
G1 X50.04 Y44.173 E0.0352 F60
G91
G1 E-0.05 F60
G90
G0 Z5 F300
; 189 PAD95
G0 X51 Y42.603 F1200
G1 Z0.2 F300
G92 E0
G1 X51.44 Y42.603 E0.0352 F60
G91
G1 E-0.05 F60
G90
G0 Z5 F300
; 190 PAD95
G0 X51.44 Y42.903 F1200
G1 Z0.2 F300
G92 E0
G1 X51 Y42.903 E0.0352 F60
G91
G1 E-0.05 F60
G90
G0 Z5 F300
; 191 PAD96
G0 X50.04 Y42.603 F1200
G1 Z0.2 F300
G92 E0
G1 X50.48 Y42.603 E0.0352 F60
G91
G1 E-0.05 F60
G90
G0 Z5 F300
; 192 PAD96
G0 X50.48 Y42.903 F1200
G1 Z0.2 F300
G92 E0
G1 X50.04 Y42.903 E0.0352 F60
G91
G1 E-0.05 F60
G90
G0 Z5 F300
; 193 PAD97
G0 X52.633 Y50.868 F1200
G1 Z0.2 F300
G92 E0
G1 X53.023 Y50.868 E0.0312 F60
G91
G1 E-0.05 F60
G90
G0 Z5 F300
; 194 PAD97
G0 X53.023 Y51.168 F1200
G1 Z0.2 F300
G92 E0
G1 X52.633 Y51.168 E0.0312 F60
G91
G1 E-0.05 F60
G90
G0 Z5 F300
; 195 PAD98
G0 X52.633 Y49.908 F1200
G1 Z0.2 F300
G92 E0
G1 X53.023 Y49.908 E0.0312 F60
G91
G1 E-0.05 F60
G90
G0 Z5 F300
; 196 PAD98
G0 X53.023 Y50.208 F1200
G1 Z0.2 F300
G92 E0
G1 X52.633 Y50.208 E0.0312 F60
G91
G1 E-0.05 F60
G90
G0 Z5 F300
; 197 PAD99
G0 X47.58 Y21.098 F1200
G1 Z0.2 F300
G92 E0
G1 X48.001 Y21.098 E0.0337 F60
G91
G1 E-0.05 F60
G90
G0 Z5 F300
; 198 PAD99
G0 X48.001 Y21.398 F1200
G1 Z0.2 F300
G92 E0
G1 X47.58 Y21.398 E0.0337 F60
G91
G1 E-0.05 F60
G90
G0 Z5 F300
; 199 PAD100
G0 X48.431 Y21.098 F1200
G1 Z0.2 F300
G92 E0
G1 X48.851 Y21.098 E0.0337 F60
G91
G1 E-0.05 F60
G90
G0 Z5 F300
; 200 PAD100
G0 X48.851 Y21.398 F1200
G1 Z0.2 F300
G92 E0
G1 X48.431 Y21.398 E0.0337 F60
G91
G1 E-0.05 F60
G90
G0 Z5 F300
; 201 PAD101
G0 X27.4 Y54.932 F1200
G1 Z0.2 F300
G92 E0
G1 X27.821 Y54.932 E0.0337 F60
G91
G1 E-0.05 F60
G90
G0 Z5 F300
; 202 PAD101
G0 X27.821 Y55.232 F1200
G1 Z0.2 F300
G92 E0
G1 X27.4 Y55.232 E0.0337 F60
G91
G1 E-0.05 F60
G90
G0 Z5 F300
; 203 PAD102
G0 X26.55 Y54.932 F1200
G1 Z0.2 F300
G92 E0
G1 X26.97 Y54.932 E0.0337 F60
G91
G1 E-0.05 F60
G90
G0 Z5 F300
; 204 PAD102
G0 X26.97 Y55.232 F1200
G1 Z0.2 F300
G92 E0
G1 X26.55 Y55.232 E0.0337 F60
G91
G1 E-0.05 F60
G90
G0 Z5 F300
; 205 PAD103
G0 X45.084 Y54.513 F1200
G1 Z0.2 F300
G92 E0
G1 X45.474 Y54.513 E0.0312 F60
G91
G1 E-0.05 F60
G90
G0 Z5 F300
; 206 PAD103
G0 X45.474 Y54.813 F1200
G1 Z0.2 F300
G92 E0
G1 X45.084 Y54.813 E0.0312 F60
G91
G1 E-0.05 F60
G90
G0 Z5 F300
; 207 PAD104
G0 X45.084 Y53.553 F1200
G1 Z0.2 F300
G92 E0
G1 X45.474 Y53.553 E0.0312 F60
G91
G1 E-0.05 F60
G90
G0 Z5 F300
; 208 PAD104
G0 X45.474 Y53.853 F1200
G1 Z0.2 F300
G92 E0
G1 X45.084 Y53.853 E0.0312 F60
G91
G1 E-0.05 F60
G90
G0 Z5 F300
; 209 PAD105
G0 X43.306 Y31.328 F1200
G1 Z0.2 F300
G92 E0
G1 X43.696 Y31.328 E0.0312 F60
G91
G1 E-0.05 F60
G90
G0 Z5 F300
; 210 PAD105
G0 X43.696 Y31.628 F1200
G1 Z0.2 F300
G92 E0
G1 X43.306 Y31.628 E0.0312 F60
G91
G1 E-0.05 F60
G90
G0 Z5 F300
; 211 PAD106
G0 X43.306 Y32.288 F1200
G1 Z0.2 F300
G92 E0
G1 X43.696 Y32.288 E0.0312 F60
G91
G1 E-0.05 F60
G90
G0 Z5 F300
; 212 PAD106
G0 X43.696 Y32.588 F1200
G1 Z0.2 F300
G92 E0
G1 X43.306 Y32.588 E0.0312 F60
G91
G1 E-0.05 F60
G90
G0 Z5 F300
; 213 PAD107
G0 X17.812 Y38.893 F1200
G1 Z0.2 F300
G92 E0
G1 X18.252 Y38.893 E0.0352 F60
G91
G1 E-0.05 F60
G90
G0 Z5 F300
; 214 PAD107
G0 X18.252 Y39.193 F1200
G1 Z0.2 F300
G92 E0
G1 X17.812 Y39.193 E0.0352 F60
G91
G1 E-0.05 F60
G90
G0 Z5 F300
; 215 PAD108
G0 X18.772 Y38.893 F1200
G1 Z0.2 F300
G92 E0
G1 X19.212 Y38.893 E0.0352 F60
G91
G1 E-0.05 F60
G90
G0 Z5 F300
; 216 PAD108
G0 X19.212 Y39.193 F1200
G1 Z0.2 F300
G92 E0
G1 X18.772 Y39.193 E0.0352 F60
G91
G1 E-0.05 F60
G90
G0 Z5 F300
; 217 PAD109
G0 X42.42 Y25.839 F1200
G1 Z0.2 F300
G92 E0
G1 X42.86 Y25.839 E0.0352 F60
G91
G1 E-0.05 F60
G90
G0 Z5 F300
; 218 PAD109
G0 X42.86 Y26.139 F1200
G1 Z0.2 F300
G92 E0
G1 X42.42 Y26.139 E0.0352 F60
G91
G1 E-0.05 F60
G90
G0 Z5 F300
; 219 PAD110
G0 X43.38 Y25.839 F1200
G1 Z0.2 F300
G92 E0
G1 X43.82 Y25.839 E0.0352 F60
G91
G1 E-0.05 F60
G90
G0 Z5 F300
; 220 PAD110
G0 X43.82 Y26.139 F1200
G1 Z0.2 F300
G92 E0
G1 X43.38 Y26.139 E0.0352 F60
G91
G1 E-0.05 F60
G90
G0 Z5 F300
; 221 PAD111
G0 X17.218 Y29.776 F1200
G1 Z0.2 F300
G92 E0
G1 X17.658 Y29.776 E0.0352 F60
G91
G1 E-0.05 F60
G90
G0 Z5 F300
; 222 PAD111
G0 X17.658 Y30.076 F1200
G1 Z0.2 F300
G92 E0
G1 X17.218 Y30.076 E0.0352 F60
G91
G1 E-0.05 F60
G90
G0 Z5 F300
; 223 PAD112
G0 X16.258 Y29.776 F1200
G1 Z0.2 F300
G92 E0
G1 X16.698 Y29.776 E0.0352 F60
G91
G1 E-0.05 F60
G90
G0 Z5 F300
; 224 PAD112
G0 X16.698 Y30.076 F1200
G1 Z0.2 F300
G92 E0
G1 X16.258 Y30.076 E0.0352 F60
G91
G1 E-0.05 F60
G90
G0 Z5 F300
; 225 PAD113
G0 X18.036 Y48.064 F1200
G1 Z0.2 F300
G92 E0
G1 X18.476 Y48.064 E0.0352 F60
G91
G1 E-0.05 F60
G90
G0 Z5 F300
; 226 PAD113
G0 X18.476 Y48.364 F1200
G1 Z0.2 F300
G92 E0
G1 X18.036 Y48.364 E0.0352 F60
G91
G1 E-0.05 F60
G90
G0 Z5 F300
; 227 PAD114
G0 X18.996 Y48.064 F1200
G1 Z0.2 F300
G92 E0
G1 X19.436 Y48.064 E0.0352 F60
G91
G1 E-0.05 F60
G90
G0 Z5 F300
; 228 PAD114
G0 X19.436 Y48.364 F1200
G1 Z0.2 F300
G92 E0
G1 X18.996 Y48.364 E0.0352 F60
G91
G1 E-0.05 F60
G90
G0 Z5 F300
; 229 PAD115
G0 X4.515 Y53.292 F1200
G1 Z0.2 F300
G92 E0
G1 X4.905 Y53.292 E0.0312 F60
G91
G1 E-0.05 F60
G90
G0 Z5 F300
; 230 PAD115
G0 X4.905 Y53.592 F1200
G1 Z0.2 F300
G92 E0
G1 X4.515 Y53.592 E0.0312 F60
G91
G1 E-0.05 F60
G90
G0 Z5 F300
; 231 PAD116
G0 X4.515 Y54.252 F1200
G1 Z0.2 F300
G92 E0
G1 X4.905 Y54.252 E0.0312 F60
G91
G1 E-0.05 F60
G90
G0 Z5 F300
; 232 PAD116
G0 X4.905 Y54.552 F1200
G1 Z0.2 F300
G92 E0
G1 X4.515 Y54.552 E0.0312 F60
G91
G1 E-0.05 F60
G90
G0 Z5 F300
; 233 PAD117
G0 X4.387 Y21.531 F1200
G1 Z0.2 F300
G92 E0
G1 X4.827 Y21.531 E0.0352 F60
G91
G1 E-0.05 F60
G90
G0 Z5 F300
; 234 PAD117
G0 X4.827 Y21.831 F1200
G1 Z0.2 F300
G92 E0
G1 X4.387 Y21.831 E0.0352 F60
G91
G1 E-0.05 F60
G90
G0 Z5 F300
; 235 PAD118
G0 X5.347 Y21.531 F1200
G1 Z0.2 F300
G92 E0
G1 X5.787 Y21.531 E0.0352 F60
G91
G1 E-0.05 F60
G90
G0 Z5 F300
; 236 PAD118
G0 X5.787 Y21.831 F1200
G1 Z0.2 F300
G92 E0
G1 X5.347 Y21.831 E0.0352 F60
G91
G1 E-0.05 F60
G90
G0 Z5 F300
; 237 PAD119
G0 X42.364 Y59.494 F1200
G1 Z0.2 F300
G92 E0
G1 X42.804 Y59.494 E0.0352 F60
G91
G1 E-0.05 F60
G90
G0 Z5 F300
; 238 PAD119
G0 X42.804 Y59.794 F1200
G1 Z0.2 F300
G92 E0
G1 X42.364 Y59.794 E0.0352 F60
G91
G1 E-0.05 F60
G90
G0 Z5 F300
; 239 PAD120
G0 X41.404 Y59.494 F1200
G1 Z0.2 F300
G92 E0
G1 X41.844 Y59.494 E0.0352 F60
G91
G1 E-0.05 F60
G90
G0 Z5 F300
; 240 PAD120
G0 X41.844 Y59.794 F1200
G1 Z0.2 F300
G92 E0
G1 X41.404 Y59.794 E0.0352 F60
G91
G1 E-0.05 F60
G90
G0 Z5 F300
; 241 PAD121
G0 X20.207 Y20.535 F1200
G1 Z0.2 F300
G92 E0
G1 X20.597 Y20.535 E0.0312 F60
G91
G1 E-0.05 F60
G90
G0 Z5 F300
; 242 PAD121
G0 X20.597 Y20.835 F1200
G1 Z0.2 F300
G92 E0
G1 X20.207 Y20.835 E0.0312 F60
G91
G1 E-0.05 F60
G90
G0 Z5 F300
; 243 PAD122
G0 X20.207 Y19.575 F1200
G1 Z0.2 F300
G92 E0
G1 X20.597 Y19.575 E0.0312 F60
G91
G1 E-0.05 F60
G90
G0 Z5 F300
; 244 PAD122
G0 X20.597 Y19.875 F1200
G1 Z0.2 F300
G92 E0
G1 X20.207 Y19.875 E0.0312 F60
G91
G1 E-0.05 F60
G90
G0 Z5 F300
; 245 PAD123
G0 X10.808 Y21.531 F1200
G1 Z0.2 F300
G92 E0
G1 X11.248 Y21.531 E0.0352 F60
G91
G1 E-0.05 F60
G90
G0 Z5 F300
; 246 PAD123
G0 X11.248 Y21.831 F1200
G1 Z0.2 F300
G92 E0
G1 X10.808 Y21.831 E0.0352 F60
G91
G1 E-0.05 F60
G90
G0 Z5 F300
; 247 PAD124
G0 X9.848 Y21.531 F1200
G1 Z0.2 F300
G92 E0
G1 X10.288 Y21.531 E0.0352 F60
G91
G1 E-0.05 F60
G90
G0 Z5 F300
; 248 PAD124
G0 X10.288 Y21.831 F1200
G1 Z0.2 F300
G92 E0
G1 X9.848 Y21.831 E0.0352 F60
G91
G1 E-0.05 F60
G90
G0 Z5 F300
; 249 PAD125
G0 X4.322 Y56.744 F1200
G1 Z0.2 F300
G92 E0
G1 X4.702 Y56.744 E0.0304 F60
G91
G1 E-0.05 F60
G90
G0 Z5 F300
; 250 PAD125
G0 X4.702 Y57.044 F1200
G1 Z0.2 F300
G92 E0
G1 X4.322 Y57.044 E0.0304 F60
G91
G1 E-0.05 F60
G90
G0 Z5 F300
; 251 PAD126
G0 X4.322 Y55.893 F1200
G1 Z0.2 F300
G92 E0
G1 X4.702 Y55.893 E0.0304 F60
G91
G1 E-0.05 F60
G90
G0 Z5 F300
; 252 PAD126
G0 X4.702 Y56.193 F1200
G1 Z0.2 F300
G92 E0
G1 X4.322 Y56.193 E0.0304 F60
G91
G1 E-0.05 F60
G90
G0 Z5 F300
; 253 PAD127
G0 X52.637 Y52.427 F1200
G1 Z0.2 F300
G92 E0
G1 X53.017 Y52.427 E0.0304 F60
G91
G1 E-0.05 F60
G90
G0 Z5 F300
; 254 PAD127
G0 X53.017 Y52.727 F1200
G1 Z0.2 F300
G92 E0
G1 X52.637 Y52.727 E0.0304 F60
G91
G1 E-0.05 F60
G90
G0 Z5 F300
; 255 PAD128
G0 X52.637 Y53.278 F1200
G1 Z0.2 F300
G92 E0
G1 X53.017 Y53.278 E0.0304 F60
G91
G1 E-0.05 F60
G90
G0 Z5 F300
; 256 PAD128
G0 X53.017 Y53.578 F1200
G1 Z0.2 F300
G92 E0
G1 X52.637 Y53.578 E0.0304 F60
G91
G1 E-0.05 F60
G90
G0 Z5 F300
; 257 PAD129
G0 X58.107 Y55.104 F1200
G1 Z0.2 F300
G92 E0
G1 X58.487 Y55.104 E0.0304 F60
G91
G1 E-0.05 F60
G90
G0 Z5 F300
; 258 PAD129
G0 X58.487 Y55.404 F1200
G1 Z0.2 F300
G92 E0
G1 X58.107 Y55.404 E0.0304 F60
G91
G1 E-0.05 F60
G90
G0 Z5 F300
; 259 PAD130
G0 X58.107 Y55.955 F1200
G1 Z0.2 F300
G92 E0
G1 X58.487 Y55.955 E0.0304 F60
G91
G1 E-0.05 F60
G90
G0 Z5 F300
; 260 PAD130
G0 X58.487 Y56.255 F1200
G1 Z0.2 F300
G92 E0
G1 X58.107 Y56.255 E0.0304 F60
G91
G1 E-0.05 F60
G90
G0 Z5 F300
; 261 PAD131
G0 X8.513 Y44.806 F1200
G1 Z0.2 F300
G92 E0
G1 X8.893 Y44.806 E0.0304 F60
G91
G1 E-0.05 F60
G90
G0 Z5 F300
; 262 PAD131
G0 X8.893 Y45.106 F1200
G1 Z0.2 F300
G92 E0
G1 X8.513 Y45.106 E0.0304 F60
G91
G1 E-0.05 F60
G90
G0 Z5 F300
; 263 PAD132
G0 X8.513 Y43.955 F1200
G1 Z0.2 F300
G92 E0
G1 X8.893 Y43.955 E0.0304 F60
G91
G1 E-0.05 F60
G90
G0 Z5 F300
; 264 PAD132
G0 X8.893 Y44.255 F1200
G1 Z0.2 F300
G92 E0
G1 X8.513 Y44.255 E0.0304 F60
G91
G1 E-0.05 F60
G90
G0 Z5 F300
; 265 PAD133
G0 X42.357 Y28.379 F1200
G1 Z0.2 F300
G92 E0
G1 X42.778 Y28.379 E0.0337 F60
G91
G1 E-0.05 F60
G90
G0 Z5 F300
; 266 PAD133
G0 X42.778 Y28.679 F1200
G1 Z0.2 F300
G92 E0
G1 X42.357 Y28.679 E0.0337 F60
G91
G1 E-0.05 F60
G90
G0 Z5 F300
; 267 PAD134
G0 X43.208 Y28.379 F1200
G1 Z0.2 F300
G92 E0
G1 X43.629 Y28.379 E0.0337 F60
G91
G1 E-0.05 F60
G90
G0 Z5 F300
; 268 PAD134
G0 X43.629 Y28.679 F1200
G1 Z0.2 F300
G92 E0
G1 X43.208 Y28.679 E0.0337 F60
G91
G1 E-0.05 F60
G90
G0 Z5 F300
; 269 PAD135
G0 X5.151 Y36.18 F1200
G1 Z0.2 F300
G92 E0
G1 X5.531 Y36.18 E0.0304 F60
G91
G1 E-0.05 F60
G90
G0 Z5 F300
; 270 PAD135
G0 X5.531 Y36.48 F1200
G1 Z0.2 F300
G92 E0
G1 X5.151 Y36.48 E0.0304 F60
G91
G1 E-0.05 F60
G90
G0 Z5 F300
; 271 PAD136
G0 X5.151 Y35.329 F1200
G1 Z0.2 F300
G92 E0
G1 X5.531 Y35.329 E0.0304 F60
G91
G1 E-0.05 F60
G90
G0 Z5 F300
; 272 PAD136
G0 X5.531 Y35.629 F1200
G1 Z0.2 F300
G92 E0
G1 X5.151 Y35.629 E0.0304 F60
G91
G1 E-0.05 F60
G90
G0 Z5 F300
; 273 PAD137
G0 X42.357 Y27.109 F1200
G1 Z0.2 F300
G92 E0
G1 X42.778 Y27.109 E0.0337 F60
G91
G1 E-0.05 F60
G90
G0 Z5 F300
; 274 PAD137
G0 X42.778 Y27.409 F1200
G1 Z0.2 F300
G92 E0
G1 X42.357 Y27.409 E0.0337 F60
G91
G1 E-0.05 F60
G90
G0 Z5 F300
; 275 PAD138
G0 X43.208 Y27.109 F1200
G1 Z0.2 F300
G92 E0
G1 X43.629 Y27.109 E0.0337 F60
G91
G1 E-0.05 F60
G90
G0 Z5 F300
; 276 PAD138
G0 X43.629 Y27.409 F1200
G1 Z0.2 F300
G92 E0
G1 X43.208 Y27.409 E0.0337 F60
G91
G1 E-0.05 F60
G90
G0 Z5 F300
; 277 PAD139
G0 X57.597 Y0.439 F1200
G1 Z0.2 F300
G92 E0
G1 X58.018 Y0.439 E0.0337 F60
G91
G1 E-0.05 F60
G90
G0 Z5 F300
; 278 PAD139
G0 X58.018 Y0.739 F1200
G1 Z0.2 F300
G92 E0
G1 X57.597 Y0.739 E0.0337 F60
G91
G1 E-0.05 F60
G90
G0 Z5 F300
; 279 PAD140
G0 X58.448 Y0.439 F1200
G1 Z0.2 F300
G92 E0
G1 X58.869 Y0.439 E0.0337 F60
G91
G1 E-0.05 F60
G90
G0 Z5 F300
; 280 PAD140
G0 X58.869 Y0.739 F1200
G1 Z0.2 F300
G92 E0
G1 X58.448 Y0.739 E0.0337 F60
G91
G1 E-0.05 F60
G90
G0 Z5 F300
; 281 PAD141
G0 X1.425 Y16.314 F1200
G1 Z0.2 F300
G92 E0
G1 X1.846 Y16.314 E0.0337 F60
G91
G1 E-0.05 F60
G90
G0 Z5 F300
; 282 PAD141
G0 X1.846 Y16.614 F1200
G1 Z0.2 F300
G92 E0
G1 X1.425 Y16.614 E0.0337 F60
G91
G1 E-0.05 F60
G90
G0 Z5 F300
; 283 PAD142
G0 X0.574 Y16.314 F1200
G1 Z0.2 F300
G92 E0
G1 X0.995 Y16.314 E0.0337 F60
G91
G1 E-0.05 F60
G90
G0 Z5 F300
; 284 PAD142
G0 X0.995 Y16.614 F1200
G1 Z0.2 F300
G92 E0
G1 X0.574 Y16.614 E0.0337 F60
G91
G1 E-0.05 F60
G90
G0 Z5 F300
; 285 PAD143
G0 X55.467 Y21.15 F1200
G1 Z0.2 F300
G92 E0
G1 X55.888 Y21.15 E0.0337 F60
G91
G1 E-0.05 F60
G90
G0 Z5 F300
; 286 PAD143
G0 X55.888 Y21.45 F1200
G1 Z0.2 F300
G92 E0
G1 X55.467 Y21.45 E0.0337 F60
G91
G1 E-0.05 F60
G90
G0 Z5 F300
; 287 PAD144
G0 X54.617 Y21.15 F1200
G1 Z0.2 F300
G92 E0
G1 X55.037 Y21.15 E0.0337 F60
G91
G1 E-0.05 F60
G90
G0 Z5 F300
; 288 PAD144
G0 X55.037 Y21.45 F1200
G1 Z0.2 F300
G92 E0
G1 X54.617 Y21.45 E0.0337 F60
G91
G1 E-0.05 F60
G90
G0 Z5 F300
; 289 PAD145
G0 X1.15 Y55.948 F1200
G1 Z0.2 F300
G92 E0
G1 X1.57 Y55.948 E0.0337 F60
G91
G1 E-0.05 F60
G90
G0 Z5 F300
; 290 PAD145
G0 X1.57 Y56.248 F1200
G1 Z0.2 F300
G92 E0
G1 X1.15 Y56.248 E0.0337 F60
G91
G1 E-0.05 F60
G90
G0 Z5 F300
; 291 PAD146
G0 X2 Y55.948 F1200
G1 Z0.2 F300
G92 E0
G1 X2.421 Y55.948 E0.0337 F60
G91
G1 E-0.05 F60
G90
G0 Z5 F300
; 292 PAD146
G0 X2.421 Y56.248 F1200
G1 Z0.2 F300
G92 E0
G1 X2 Y56.248 E0.0337 F60
G91
G1 E-0.05 F60
G90
G0 Z5 F300
; 293 PAD147
G0 X33.786 Y54.712 F1200
G1 Z0.2 F300
G92 E0
G1 X34.166 Y54.712 E0.0304 F60
G91
G1 E-0.05 F60
G90
G0 Z5 F300
; 294 PAD147
G0 X34.166 Y55.012 F1200
G1 Z0.2 F300
G92 E0
G1 X33.786 Y55.012 E0.0304 F60
G91
G1 E-0.05 F60
G90
G0 Z5 F300
; 295 PAD148
G0 X33.786 Y53.861 F1200
G1 Z0.2 F300
G92 E0
G1 X34.166 Y53.861 E0.0304 F60
G91
G1 E-0.05 F60
G90
G0 Z5 F300
; 296 PAD148
G0 X34.166 Y54.161 F1200
G1 Z0.2 F300
G92 E0
G1 X33.786 Y54.161 E0.0304 F60
G91
G1 E-0.05 F60
G90
G0 Z5 F300
; 297 PAD149
G0 X6.937 Y44.031 F1200
G1 Z0.2 F300
G92 E0
G1 X7.317 Y44.031 E0.0304 F60
G91
G1 E-0.05 F60
G90
G0 Z5 F300
; 298 PAD149
G0 X7.317 Y44.331 F1200
G1 Z0.2 F300
G92 E0
G1 X6.937 Y44.331 E0.0304 F60
G91
G1 E-0.05 F60
G90
G0 Z5 F300
; 299 PAD150
G0 X6.937 Y44.881 F1200
G1 Z0.2 F300
G92 E0
G1 X7.317 Y44.881 E0.0304 F60
G91
G1 E-0.05 F60
G90
G0 Z5 F300
; 300 PAD150
G0 X7.317 Y45.181 F1200
G1 Z0.2 F300
G92 E0
G1 X6.937 Y45.181 E0.0304 F60
G91
G1 E-0.05 F60
G90
G0 Z5 F300
; 301 PAD151
G0 X1.301 Y50.868 F1200
G1 Z0.2 F300
G92 E0
G1 X1.8 Y50.868 E0.0399 F60
G91
G1 E-0.05 F60
G90
G0 Z5 F300
; 302 PAD151
G0 X1.8 Y51.168 F1200
G1 Z0.2 F300
G92 E0
G1 X1.301 Y51.168 E0.0399 F60
G91
G1 E-0.05 F60
G90
G0 Z5 F300
; 303 PAD152
G0 X0.247 Y50.868 F1200
G1 Z0.2 F300
G92 E0
G1 X0.745 Y50.868 E0.0399 F60
G91
G1 E-0.05 F60
G90
G0 Z5 F300
; 304 PAD152
G0 X0.745 Y51.168 F1200
G1 Z0.2 F300
G92 E0
G1 X0.247 Y51.168 E0.0399 F60
G91
G1 E-0.05 F60
G90
G0 Z5 F300
; 305 PAD153
G0 X1.301 Y46.804 F1200
G1 Z0.2 F300
G92 E0
G1 X1.8 Y46.804 E0.0399 F60
G91
G1 E-0.05 F60
G90
G0 Z5 F300
; 306 PAD153
G0 X1.8 Y47.104 F1200
G1 Z0.2 F300
G92 E0
G1 X1.301 Y47.104 E0.0399 F60
G91
G1 E-0.05 F60
G90
G0 Z5 F300
; 307 PAD154
G0 X0.247 Y46.804 F1200
G1 Z0.2 F300
G92 E0
G1 X0.745 Y46.804 E0.0399 F60
G91
G1 E-0.05 F60
G90
G0 Z5 F300
; 308 PAD154
G0 X0.745 Y47.104 F1200
G1 Z0.2 F300
G92 E0
G1 X0.247 Y47.104 E0.0399 F60
G91
G1 E-0.05 F60
G90
G0 Z5 F300
; 309 PAD155
G0 X46.256 Y51.874 F1200
G1 Z0.2 F300
G92 E0
G1 X46.677 Y51.874 E0.0337 F60
G91
G1 E-0.05 F60
G90
G0 Z5 F300
; 310 PAD155
G0 X46.677 Y52.174 F1200
G1 Z0.2 F300
G92 E0
G1 X46.256 Y52.174 E0.0337 F60
G91
G1 E-0.05 F60
G90
G0 Z5 F300
; 311 PAD156
G0 X45.405 Y51.874 F1200
G1 Z0.2 F300
G92 E0
G1 X45.826 Y51.874 E0.0337 F60
G91
G1 E-0.05 F60
G90
G0 Z5 F300
; 312 PAD156
G0 X45.826 Y52.174 F1200
G1 Z0.2 F300
G92 E0
G1 X45.405 Y52.174 E0.0337 F60
G91
G1 E-0.05 F60
G90
G0 Z5 F300
; 313 PAD157
G0 X33.146 Y26.502 F1200
G1 Z0.2 F300
G92 E0
G1 X33.536 Y26.502 E0.0312 F60
G91
G1 E-0.05 F60
G90
G0 Z5 F300
; 314 PAD157
G0 X33.536 Y26.802 F1200
G1 Z0.2 F300
G92 E0
G1 X33.146 Y26.802 E0.0312 F60
G91
G1 E-0.05 F60
G90
G0 Z5 F300
; 315 PAD158
G0 X33.146 Y27.462 F1200
G1 Z0.2 F300
G92 E0
G1 X33.536 Y27.462 E0.0312 F60
G91
G1 E-0.05 F60
G90
G0 Z5 F300
; 316 PAD158
G0 X33.536 Y27.762 F1200
G1 Z0.2 F300
G92 E0
G1 X33.146 Y27.762 E0.0312 F60
G91
G1 E-0.05 F60
G90
G0 Z5 F300
; 317 PAD159
G0 X19.018 Y41.089 F1200
G1 Z0.2 F300
G92 E0
G1 X19.439 Y41.089 E0.0337 F60
G91
G1 E-0.05 F60
G90
G0 Z5 F300
; 318 PAD159
G0 X19.439 Y41.389 F1200
G1 Z0.2 F300
G92 E0
G1 X19.018 Y41.389 E0.0337 F60
G91
G1 E-0.05 F60
G90
G0 Z5 F300
; 319 PAD160
G0 X18.168 Y41.089 F1200
G1 Z0.2 F300
G92 E0
G1 X18.588 Y41.089 E0.0337 F60
G91
G1 E-0.05 F60
G90
G0 Z5 F300
; 320 PAD160
G0 X18.588 Y41.389 F1200
G1 Z0.2 F300
G92 E0
G1 X18.168 Y41.389 E0.0337 F60
G91
G1 E-0.05 F60
G90
G0 Z5 F300
; 321 PAD161
G0 X46.224 Y21.142 F1200
G1 Z0.2 F300
G92 E0
G1 X46.604 Y21.142 E0.0304 F60
G91
G1 E-0.05 F60
G90
G0 Z5 F300
; 322 PAD161
G0 X46.604 Y21.442 F1200
G1 Z0.2 F300
G92 E0
G1 X46.224 Y21.442 E0.0304 F60
G91
G1 E-0.05 F60
G90
G0 Z5 F300
; 323 PAD162
G0 X46.224 Y20.292 F1200
G1 Z0.2 F300
G92 E0
G1 X46.604 Y20.292 E0.0304 F60
G91
G1 E-0.05 F60
G90
G0 Z5 F300
; 324 PAD162
G0 X46.604 Y20.592 F1200
G1 Z0.2 F300
G92 E0
G1 X46.224 Y20.592 E0.0304 F60
G91
G1 E-0.05 F60
G90
G0 Z5 F300
; 325 PAD163
G0 X0.893 Y0.14 F1200
G1 Z0.2 F300
G92 E0
G1 X1.273 Y0.14 E0.0304 F60
G91
G1 E-0.05 F60
G90
G0 Z5 F300
; 326 PAD163
G0 X1.273 Y0.44 F1200
G1 Z0.2 F300
G92 E0
G1 X0.893 Y0.44 E0.0304 F60
G91
G1 E-0.05 F60
G90
G0 Z5 F300
; 327 PAD164
G0 X0.893 Y0.991 F1200
G1 Z0.2 F300
G92 E0
G1 X1.273 Y0.991 E0.0304 F60
G91
G1 E-0.05 F60
G90
G0 Z5 F300
; 328 PAD164
G0 X1.273 Y1.291 F1200
G1 Z0.2 F300
G92 E0
G1 X0.893 Y1.291 E0.0304 F60
G91
G1 E-0.05 F60
G90
G0 Z5 F300
; 329 PAD165
G0 X57.665 Y16.324 F1200
G1 Z0.2 F300
G92 E0
G1 X58.085 Y16.324 E0.0337 F60
G91
G1 E-0.05 F60
G90
G0 Z5 F300
; 330 PAD165
G0 X58.085 Y16.624 F1200
G1 Z0.2 F300
G92 E0
G1 X57.665 Y16.624 E0.0337 F60
G91
G1 E-0.05 F60
G90
G0 Z5 F300
; 331 PAD166
G0 X58.515 Y16.324 F1200
G1 Z0.2 F300
G92 E0
G1 X58.936 Y16.324 E0.0337 F60
G91
G1 E-0.05 F60
G90
G0 Z5 F300
; 332 PAD166
G0 X58.936 Y16.624 F1200
G1 Z0.2 F300
G92 E0
G1 X58.515 Y16.624 E0.0337 F60
G91
G1 E-0.05 F60
G90
G0 Z5 F300
; 333 PAD167
G0 X6.047 Y53.264 F1200
G1 Z0.2 F300
G92 E0
G1 X6.427 Y53.264 E0.0304 F60
G91
G1 E-0.05 F60
G90
G0 Z5 F300
; 334 PAD167
G0 X6.427 Y53.564 F1200
G1 Z0.2 F300
G92 E0
G1 X6.047 Y53.564 E0.0304 F60
G91
G1 E-0.05 F60
G90
G0 Z5 F300
; 335 PAD168
G0 X6.047 Y54.115 F1200
G1 Z0.2 F300
G92 E0
G1 X6.427 Y54.115 E0.0304 F60
G91
G1 E-0.05 F60
G90
G0 Z5 F300
; 336 PAD168
G0 X6.427 Y54.415 F1200
G1 Z0.2 F300
G92 E0
G1 X6.047 Y54.415 E0.0304 F60
G91
G1 E-0.05 F60
G90
G0 Z5 F300
; 337 PAD169
G0 X25.979 Y43.673 F1200
G1 Z0.2 F300
G92 E0
G1 X26.359 Y43.673 E0.0304 F60
G91
G1 E-0.05 F60
G90
G0 Z5 F300
; 338 PAD169
G0 X26.359 Y43.973 F1200
G1 Z0.2 F300
G92 E0
G1 X25.979 Y43.973 E0.0304 F60
G91
G1 E-0.05 F60
G90
G0 Z5 F300
; 339 PAD170
G0 X25.979 Y42.822 F1200
G1 Z0.2 F300
G92 E0
G1 X26.359 Y42.822 E0.0304 F60
G91
G1 E-0.05 F60
G90
G0 Z5 F300
; 340 PAD170
G0 X26.359 Y43.122 F1200
G1 Z0.2 F300
G92 E0
G1 X25.979 Y43.122 E0.0304 F60
G91
G1 E-0.05 F60
G90
G0 Z5 F300
; 341 PAD171
G0 X42.357 Y24.569 F1200
G1 Z0.2 F300
G92 E0
G1 X42.778 Y24.569 E0.0337 F60
G91
G1 E-0.05 F60
G90
G0 Z5 F300
; 342 PAD171
G0 X42.778 Y24.869 F1200
G1 Z0.2 F300
G92 E0
G1 X42.357 Y24.869 E0.0337 F60
G91
G1 E-0.05 F60
G90
G0 Z5 F300
; 343 PAD172
G0 X43.208 Y24.569 F1200
G1 Z0.2 F300
G92 E0
G1 X43.629 Y24.569 E0.0337 F60
G91
G1 E-0.05 F60
G90
G0 Z5 F300
; 344 PAD172
G0 X43.629 Y24.869 F1200
G1 Z0.2 F300
G92 E0
G1 X43.208 Y24.869 E0.0337 F60
G91
G1 E-0.05 F60
G90
G0 Z5 F300
; 345 PAD173
G0 X29.849 Y54.712 F1200
G1 Z0.2 F300
G92 E0
G1 X30.229 Y54.712 E0.0304 F60
G91
G1 E-0.05 F60
G90
G0 Z5 F300
; 346 PAD173
G0 X30.229 Y55.012 F1200
G1 Z0.2 F300
G92 E0
G1 X29.849 Y55.012 E0.0304 F60
G91
G1 E-0.05 F60
G90
G0 Z5 F300
; 347 PAD174
G0 X29.849 Y53.861 F1200
G1 Z0.2 F300
G92 E0
G1 X30.229 Y53.861 E0.0304 F60
G91
G1 E-0.05 F60
G90
G0 Z5 F300
; 348 PAD174
G0 X30.229 Y54.161 F1200
G1 Z0.2 F300
G92 E0
G1 X29.849 Y54.161 E0.0304 F60
G91
G1 E-0.05 F60
G90
G0 Z5 F300
; 349 PAD175
G0 X37.351 Y20.769 F1200
G1 Z0.2 F300
G92 E0
G1 X37.791 Y20.769 E0.0352 F60
G91
G1 E-0.05 F60
G90
G0 Z5 F300
; 350 PAD175
G0 X37.791 Y21.069 F1200
G1 Z0.2 F300
G92 E0
G1 X37.351 Y21.069 E0.0352 F60
G91
G1 E-0.05 F60
G90
G0 Z5 F300
; 351 PAD176
G0 X36.391 Y20.769 F1200
G1 Z0.2 F300
G92 E0
G1 X36.831 Y20.769 E0.0352 F60
G91
G1 E-0.05 F60
G90
G0 Z5 F300
; 352 PAD176
G0 X36.831 Y21.069 F1200
G1 Z0.2 F300
G92 E0
G1 X36.391 Y21.069 E0.0352 F60
G91
G1 E-0.05 F60
G90
G0 Z5 F300
; 353 PAD177
G0 X27.012 Y61.2 F1200
G1 Z0.2 F300
G92 E0
G1 X27.852 Y61.2 E0.0672 F60
G91
G1 E-0.05 F60
G90
G0 Z5 F300
; 354 PAD177
G0 X27.852 Y61.5 F1200
G1 Z0.2 F300
G92 E0
G1 X27.012 Y61.5 E0.0672 F60
G91
G1 E-0.05 F60
G90
G0 Z5 F300
; 355 PAD177
G0 X27.012 Y61.8 F1200
G1 Z0.2 F300
G92 E0
G1 X27.852 Y61.8 E0.0672 F60
G91
G1 E-0.05 F60
G90
G0 Z5 F300
; 356 PAD178
G0 X35.662 Y61.2 F1200
G1 Z0.2 F300
G92 E0
G1 X36.502 Y61.2 E0.0672 F60
G91
G1 E-0.05 F60
G90
G0 Z5 F300
; 357 PAD178
G0 X36.502 Y61.5 F1200
G1 Z0.2 F300
G92 E0
G1 X35.662 Y61.5 E0.0672 F60
G91
G1 E-0.05 F60
G90
G0 Z5 F300
; 358 PAD178
G0 X35.662 Y61.8 F1200
G1 Z0.2 F300
G92 E0
G1 X36.502 Y61.8 E0.0672 F60
G91
G1 E-0.05 F60
G90
G0 Z5 F300
; 359 PAD179
G0 X27.012 Y56.85 F1200
G1 Z0.2 F300
G92 E0
G1 X27.852 Y56.85 E0.0672 F60
G91
G1 E-0.05 F60
G90
G0 Z5 F300
; 360 PAD179
G0 X27.852 Y57.15 F1200
G1 Z0.2 F300
G92 E0
G1 X27.012 Y57.15 E0.0672 F60
G91
G1 E-0.05 F60
G90
G0 Z5 F300
; 361 PAD179
G0 X27.012 Y57.45 F1200
G1 Z0.2 F300
G92 E0
G1 X27.852 Y57.45 E0.0672 F60
G91
G1 E-0.05 F60
G90
G0 Z5 F300
; 362 PAD179
G0 X27.852 Y57.75 F1200
G1 Z0.2 F300
G92 E0
G1 X27.012 Y57.75 E0.0672 F60
G91
G1 E-0.05 F60
G90
G0 Z5 F300
; 363 PAD180
G0 X35.662 Y56.85 F1200
G1 Z0.2 F300
G92 E0
G1 X36.502 Y56.85 E0.0672 F60
G91
G1 E-0.05 F60
G90
G0 Z5 F300
; 364 PAD180
G0 X36.502 Y57.15 F1200
G1 Z0.2 F300
G92 E0
G1 X35.662 Y57.15 E0.0672 F60
G91
G1 E-0.05 F60
G90
G0 Z5 F300
; 365 PAD180
G0 X35.662 Y57.45 F1200
G1 Z0.2 F300
G92 E0
G1 X36.502 Y57.45 E0.0672 F60
G91
G1 E-0.05 F60
G90
G0 Z5 F300
; 366 PAD180
G0 X36.502 Y57.75 F1200
G1 Z0.2 F300
G92 E0
G1 X35.662 Y57.75 E0.0672 F60
G91
G1 E-0.05 F60
G90
G0 Z5 F300
; 367 PAD181
G0 X28.337 Y56.087 F1200
G1 Z0.2 F300
G92 E0
G1 X28.777 Y56.087 E0.0352 F60
G91
G1 E-0.05 F60
G90
G0 Z5 F300
; 368 PAD181
G0 X28.777 Y56.387 F1200
G1 Z0.2 F300
G92 E0
G1 X28.337 Y56.387 E0.0352 F60
G91
G1 E-0.05 F60
G90
G0 Z5 F300
; 369 PAD181
G0 X28.337 Y56.687 F1200
G1 Z0.2 F300
G92 E0
G1 X28.777 Y56.687 E0.0352 F60
G91
G1 E-0.05 F60
G90
G0 Z5 F300
; 370 PAD181
G0 X28.777 Y56.987 F1200
G1 Z0.2 F300
G92 E0
G1 X28.337 Y56.987 E0.0352 F60
G91
G1 E-0.05 F60
G90
G0 Z5 F300
; 371 PAD182
G0 X29.137 Y56.087 F1200
G1 Z0.2 F300
G92 E0
G1 X29.577 Y56.087 E0.0352 F60
G91
G1 E-0.05 F60
G90
G0 Z5 F300
; 372 PAD182
G0 X29.577 Y56.387 F1200
G1 Z0.2 F300
G92 E0
G1 X29.137 Y56.387 E0.0352 F60
G91
G1 E-0.05 F60
G90
G0 Z5 F300
; 373 PAD182
G0 X29.137 Y56.687 F1200
G1 Z0.2 F300
G92 E0
G1 X29.577 Y56.687 E0.0352 F60
G91
G1 E-0.05 F60
G90
G0 Z5 F300
; 374 PAD182
G0 X29.577 Y56.987 F1200
G1 Z0.2 F300
G92 E0
G1 X29.137 Y56.987 E0.0352 F60
G91
G1 E-0.05 F60
G90
G0 Z5 F300
; 375 PAD183
G0 X30.007 Y56.537 F1200
G1 Z0.2 F300
G91
G1 E0.5 F60
G1 E-0.05 F60
G90
G0 Z5 F300
; 376 PAD184
G0 X30.507 Y56.537 F1200
G1 Z0.2 F300
G91
G1 E0.5 F60
G1 E-0.05 F60
G90
G0 Z5 F300
; 377 PAD185
G0 X31.007 Y56.537 F1200
G1 Z0.2 F300
G91
G1 E0.5 F60
G1 E-0.05 F60
G90
G0 Z5 F300
; 378 PAD186
G0 X31.507 Y56.537 F1200
G1 Z0.2 F300
G91
G1 E0.5 F60
G1 E-0.05 F60
G90
G0 Z5 F300
; 379 PAD187
G0 X32.007 Y56.537 F1200
G1 Z0.2 F300
G91
G1 E0.5 F60
G1 E-0.05 F60
G90
G0 Z5 F300
; 380 PAD188
G0 X32.507 Y56.537 F1200
G1 Z0.2 F300
G91
G1 E0.5 F60
G1 E-0.05 F60
G90
G0 Z5 F300
; 381 PAD189
G0 X33.007 Y56.537 F1200
G1 Z0.2 F300
G91
G1 E0.5 F60
G1 E-0.05 F60
G90
G0 Z5 F300
; 382 PAD190
G0 X33.507 Y56.537 F1200
G1 Z0.2 F300
G91
G1 E0.5 F60
G1 E-0.05 F60
G90
G0 Z5 F300
; 383 PAD191
G0 X33.937 Y56.087 F1200
G1 Z0.2 F300
G92 E0
G1 X34.377 Y56.087 E0.0352 F60
G91
G1 E-0.05 F60
G90
G0 Z5 F300
; 384 PAD191
G0 X34.377 Y56.387 F1200
G1 Z0.2 F300
G92 E0
G1 X33.937 Y56.387 E0.0352 F60
G91
G1 E-0.05 F60
G90
G0 Z5 F300
; 385 PAD191
G0 X33.937 Y56.687 F1200
G1 Z0.2 F300
G92 E0
G1 X34.377 Y56.687 E0.0352 F60
G91
G1 E-0.05 F60
G90
G0 Z5 F300
; 386 PAD191
G0 X34.377 Y56.987 F1200
G1 Z0.2 F300
G92 E0
G1 X33.937 Y56.987 E0.0352 F60
G91
G1 E-0.05 F60
G90
G0 Z5 F300
; 387 PAD192
G0 X34.737 Y56.087 F1200
G1 Z0.2 F300
G92 E0
G1 X35.177 Y56.087 E0.0352 F60
G91
G1 E-0.05 F60
G90
G0 Z5 F300
; 388 PAD192
G0 X35.177 Y56.387 F1200
G1 Z0.2 F300
G92 E0
G1 X34.737 Y56.387 E0.0352 F60
G91
G1 E-0.05 F60
G90
G0 Z5 F300
; 389 PAD192
G0 X34.737 Y56.687 F1200
G1 Z0.2 F300
G92 E0
G1 X35.177 Y56.687 E0.0352 F60
G91
G1 E-0.05 F60
G90
G0 Z5 F300
; 390 PAD192
G0 X35.177 Y56.987 F1200
G1 Z0.2 F300
G92 E0
G1 X34.737 Y56.987 E0.0352 F60
G91
G1 E-0.05 F60
G90
G0 Z5 F300
; 391 PAD193
G0 X39.591 Y21.093 F1200
G1 Z0.2 F300
G92 E0
G1 X39.923 Y21.093 E0.0266 F60
G91
G1 E-0.05 F60
G90
G0 Z5 F300
; 392 PAD193
G0 X39.952 Y21.393 F1200
G1 Z0.2 F300
G92 E0
G1 X39.619 Y21.393 E0.0266 F60
G91
G1 E-0.05 F60
G90
G0 Z5 F300
; 393 PAD194
G0 X40.192 Y21.694 F1200
G1 Z0.2 F300
G92 E0
G1 X40.525 Y21.694 E0.0266 F60
G91
G1 E-0.05 F60
G90
G0 Z5 F300
; 394 PAD194
G0 X40.553 Y21.994 F1200
G1 Z0.2 F300
G92 E0
G1 X40.221 Y21.994 E0.0266 F60
G91
G1 E-0.05 F60
G90
G0 Z5 F300
; 395 PAD195
G0 X55.503 Y55.131 F1200
G1 Z0.2 F300
G92 E0
G1 X55.883 Y55.131 E0.0304 F60
G91
G1 E-0.05 F60
G90
G0 Z5 F300
; 396 PAD195
G0 X55.883 Y55.431 F1200
G1 Z0.2 F300
G92 E0
G1 X55.503 Y55.431 E0.0304 F60
G91
G1 E-0.05 F60
G90
G0 Z5 F300
; 397 PAD196
G0 X55.503 Y55.982 F1200
G1 Z0.2 F300
G92 E0
G1 X55.883 Y55.982 E0.0304 F60
G91
G1 E-0.05 F60
G90
G0 Z5 F300
; 398 PAD196
G0 X55.883 Y56.282 F1200
G1 Z0.2 F300
G92 E0
G1 X55.503 Y56.282 E0.0304 F60
G91
G1 E-0.05 F60
G90
G0 Z5 F300
; 399 PAD197
G0 X54.106 Y55.131 F1200
G1 Z0.2 F300
G92 E0
G1 X54.486 Y55.131 E0.0304 F60
G91
G1 E-0.05 F60
G90
G0 Z5 F300
; 400 PAD197
G0 X54.486 Y55.431 F1200
G1 Z0.2 F300
G92 E0
G1 X54.106 Y55.431 E0.0304 F60
G91
G1 E-0.05 F60
G90
G0 Z5 F300
; 401 PAD198
G0 X54.106 Y55.982 F1200
G1 Z0.2 F300
G92 E0
G1 X54.486 Y55.982 E0.0304 F60
G91
G1 E-0.05 F60
G90
G0 Z5 F300
; 402 PAD198
G0 X54.486 Y56.282 F1200
G1 Z0.2 F300
G92 E0
G1 X54.106 Y56.282 E0.0304 F60
G91
G1 E-0.05 F60
G90
G0 Z5 F300
; 403 PAD199
G0 X38.439 Y32.27 F1200
G1 Z0.2 F300
G92 E0
G1 X41.079 Y32.27 E0.2112 F60
G91
G1 E-0.05 F60
G90
G0 Z5 F300
; 404 PAD199
G0 X41.079 Y32.57 F1200
G1 Z0.2 F300
G92 E0
G1 X38.439 Y32.57 E0.2112 F60
G91
G1 E-0.05 F60
G90
G0 Z5 F300
; 405 PAD199
G0 X38.439 Y32.87 F1200
G1 Z0.2 F300
G92 E0
G1 X41.079 Y32.87 E0.2112 F60
G91
G1 E-0.05 F60
G90
G0 Z5 F300
; 406 PAD199
G0 X41.079 Y33.17 F1200
G1 Z0.2 F300
G92 E0
G1 X38.439 Y33.17 E0.2112 F60
G91
G1 E-0.05 F60
G90
G0 Z5 F300
; 407 PAD200
G0 X34.239 Y32.27 F1200
G1 Z0.2 F300
G92 E0
G1 X36.879 Y32.27 E0.2112 F60
G91
G1 E-0.05 F60
G90
G0 Z5 F300
; 408 PAD200
G0 X36.879 Y32.57 F1200
G1 Z0.2 F300
G92 E0
G1 X34.239 Y32.57 E0.2112 F60
G91
G1 E-0.05 F60
G90
G0 Z5 F300
; 409 PAD200
G0 X34.239 Y32.87 F1200
G1 Z0.2 F300
G92 E0
G1 X36.879 Y32.87 E0.2112 F60
G91
G1 E-0.05 F60
G90
G0 Z5 F300
; 410 PAD200
G0 X36.879 Y33.17 F1200
G1 Z0.2 F300
G92 E0
G1 X34.239 Y33.17 E0.2112 F60
G91
G1 E-0.05 F60
G90
G0 Z5 F300
; 411 PAD201
G0 X29.315 Y45.558 F1200
G1 Z0.2 F300
G92 E0
G1 X30.255 Y45.558 E0.0752 F60
G91
G1 E-0.05 F60
G90
G0 Z5 F300
; 412 PAD201
G0 X30.255 Y45.858 F1200
G1 Z0.2 F300
G92 E0
G1 X29.315 Y45.858 E0.0752 F60
G91
G1 E-0.05 F60
G90
G0 Z5 F300
; 413 PAD201
G0 X29.315 Y46.158 F1200
G1 Z0.2 F300
G92 E0
G1 X30.255 Y46.158 E0.0752 F60
G91
G1 E-0.05 F60
G90
G0 Z5 F300
; 414 PAD201
G0 X30.255 Y46.458 F1200
G1 Z0.2 F300
G92 E0
G1 X29.315 Y46.458 E0.0752 F60
G91
G1 E-0.05 F60
G90
G0 Z5 F300
; 415 PAD201
G0 X29.315 Y46.758 F1200
G1 Z0.2 F300
G92 E0
G1 X30.255 Y46.758 E0.0752 F60
G91
G1 E-0.05 F60
G90
G0 Z5 F300
; 416 PAD201
G0 X30.255 Y47.058 F1200
G1 Z0.2 F300
G92 E0
G1 X29.315 Y47.058 E0.0752 F60
G91
G1 E-0.05 F60
G90
G0 Z5 F300
; 417 PAD201
G0 X29.315 Y47.358 F1200
G1 Z0.2 F300
G92 E0
G1 X30.255 Y47.358 E0.0752 F60
G91
G1 E-0.05 F60
G90
G0 Z5 F300
; 418 PAD201
G0 X30.255 Y47.658 F1200
G1 Z0.2 F300
G92 E0
G1 X29.315 Y47.658 E0.0752 F60
G91
G1 E-0.05 F60
G90
G0 Z5 F300
; 419 PAD201
G0 X29.315 Y47.958 F1200
G1 Z0.2 F300
G92 E0
G1 X30.255 Y47.958 E0.0752 F60
G91
G1 E-0.05 F60
G90
G0 Z5 F300
; 420 PAD202
G0 X29.315 Y41.358 F1200
G1 Z0.2 F300
G92 E0
G1 X30.255 Y41.358 E0.0752 F60
G91
G1 E-0.05 F60
G90
G0 Z5 F300
; 421 PAD202
G0 X30.255 Y41.658 F1200
G1 Z0.2 F300
G92 E0
G1 X29.315 Y41.658 E0.0752 F60
G91
G1 E-0.05 F60
G90
G0 Z5 F300
; 422 PAD202
G0 X29.315 Y41.958 F1200
G1 Z0.2 F300
G92 E0
G1 X30.255 Y41.958 E0.0752 F60
G91
G1 E-0.05 F60
G90
G0 Z5 F300
; 423 PAD202
G0 X30.255 Y42.258 F1200
G1 Z0.2 F300
G92 E0
G1 X29.315 Y42.258 E0.0752 F60
G91
G1 E-0.05 F60
G90
G0 Z5 F300
; 424 PAD202
G0 X29.315 Y42.558 F1200
G1 Z0.2 F300
G92 E0
G1 X30.255 Y42.558 E0.0752 F60
G91
G1 E-0.05 F60
G90
G0 Z5 F300
; 425 PAD202
G0 X30.255 Y42.858 F1200
G1 Z0.2 F300
G92 E0
G1 X29.315 Y42.858 E0.0752 F60
G91
G1 E-0.05 F60
G90
G0 Z5 F300
; 426 PAD202
G0 X29.315 Y43.158 F1200
G1 Z0.2 F300
G92 E0
G1 X30.255 Y43.158 E0.0752 F60
G91
G1 E-0.05 F60
G90
G0 Z5 F300
; 427 PAD202
G0 X30.255 Y43.458 F1200
G1 Z0.2 F300
G92 E0
G1 X29.315 Y43.458 E0.0752 F60
G91
G1 E-0.05 F60
G90
G0 Z5 F300
; 428 PAD202
G0 X29.315 Y43.758 F1200
G1 Z0.2 F300
G92 E0
G1 X30.255 Y43.758 E0.0752 F60
G91
G1 E-0.05 F60
G90
G0 Z5 F300
; 429 PAD203
G0 X44.566 Y36.514 F1200
G1 Z0.2 F300
G91
G1 E0.5 F60
G1 E-0.05 F60
G90
G0 Z5 F300
; 430 PAD204
G0 X44.566 Y36.014 F1200
G1 Z0.2 F300
G91
G1 E0.5 F60
G1 E-0.05 F60
G90
G0 Z5 F300
; 431 PAD205
G0 X44.566 Y35.514 F1200
G1 Z0.2 F300
G91
G1 E0.5 F60
G1 E-0.05 F60
G90
G0 Z5 F300
; 432 PAD206
G0 X44.566 Y35.014 F1200
G1 Z0.2 F300
G91
G1 E0.5 F60
G1 E-0.05 F60
G90
G0 Z5 F300
; 433 PAD207
G0 X44.566 Y34.514 F1200
G1 Z0.2 F300
G91
G1 E0.5 F60
G1 E-0.05 F60
G90
G0 Z5 F300
; 434 PAD208
G0 X48.786 Y36.514 F1200
G1 Z0.2 F300
G91
G1 E0.5 F60
G1 E-0.05 F60
G90
G0 Z5 F300
; 435 PAD209
G0 X48.786 Y36.014 F1200
G1 Z0.2 F300
G91
G1 E0.5 F60
G1 E-0.05 F60
G90
G0 Z5 F300
; 436 PAD210
G0 X48.786 Y35.514 F1200
G1 Z0.2 F300
G91
G1 E0.5 F60
G1 E-0.05 F60
G90
G0 Z5 F300
; 437 PAD211
G0 X48.786 Y35.014 F1200
G1 Z0.2 F300
G91
G1 E0.5 F60
G1 E-0.05 F60
G90
G0 Z5 F300
; 438 PAD212
G0 X48.786 Y34.514 F1200
G1 Z0.2 F300
G91
G1 E0.5 F60
G1 E-0.05 F60
G90
G0 Z5 F300
; 439 PAD213
G0 X47.747 Y22.418 F1200
G1 Z0.2 F300
G92 E0
G1 X48.787 Y22.418 E0.0832 F60
G91
G1 E-0.05 F60
G90
G0 Z5 F300
; 440 PAD213
G0 X48.787 Y22.718 F1200
G1 Z0.2 F300
G92 E0
G1 X47.747 Y22.718 E0.0832 F60
G91
G1 E-0.05 F60
G90
G0 Z5 F300
; 441 PAD213
G0 X47.747 Y23.018 F1200
G1 Z0.2 F300
G92 E0
G1 X48.787 Y23.018 E0.0832 F60
G91
G1 E-0.05 F60
G90
G0 Z5 F300
; 442 PAD213
G0 X48.787 Y23.318 F1200
G1 Z0.2 F300
G92 E0
G1 X47.747 Y23.318 E0.0832 F60
G91
G1 E-0.05 F60
G90
G0 Z5 F300
; 443 PAD213
G0 X47.747 Y23.618 F1200
G1 Z0.2 F300
G92 E0
G1 X48.787 Y23.618 E0.0832 F60
G91
G1 E-0.05 F60
G90
G0 Z5 F300
; 444 PAD213
G0 X48.787 Y23.918 F1200
G1 Z0.2 F300
G92 E0
G1 X47.747 Y23.918 E0.0832 F60
G91
G1 E-0.05 F60
G90
G0 Z5 F300
; 445 PAD213
G0 X47.747 Y24.218 F1200
G1 Z0.2 F300
G92 E0
G1 X48.787 Y24.218 E0.0832 F60
G91
G1 E-0.05 F60
G90
G0 Z5 F300
; 446 PAD213
G0 X48.787 Y24.518 F1200
G1 Z0.2 F300
G92 E0
G1 X47.747 Y24.518 E0.0832 F60
G91
G1 E-0.05 F60
G90
G0 Z5 F300
; 447 PAD213
G0 X47.747 Y24.818 F1200
G1 Z0.2 F300
G92 E0
G1 X48.787 Y24.818 E0.0832 F60
G91
G1 E-0.05 F60
G90
G0 Z5 F300
; 448 PAD213
G0 X48.787 Y25.118 F1200
G1 Z0.2 F300
G92 E0
G1 X47.747 Y25.118 E0.0832 F60
G91
G1 E-0.05 F60
G90
G0 Z5 F300
; 449 PAD213
G0 X47.747 Y25.418 F1200
G1 Z0.2 F300
G92 E0
G1 X48.787 Y25.418 E0.0832 F60
G91
G1 E-0.05 F60
G90
G0 Z5 F300
; 450 PAD213
G0 X48.787 Y25.718 F1200
G1 Z0.2 F300
G92 E0
G1 X47.747 Y25.718 E0.0832 F60
G91
G1 E-0.05 F60
G90
G0 Z5 F300
; 451 PAD213
G0 X47.747 Y26.018 F1200
G1 Z0.2 F300
G92 E0
G1 X48.787 Y26.018 E0.0832 F60
G91
G1 E-0.05 F60
G90
G0 Z5 F300
; 452 PAD214
G0 X47.747 Y27.758 F1200
G1 Z0.2 F300
G92 E0
G1 X48.787 Y27.758 E0.0832 F60
G91
G1 E-0.05 F60
G90
G0 Z5 F300
; 453 PAD214
G0 X48.787 Y28.058 F1200
G1 Z0.2 F300
G92 E0
G1 X47.747 Y28.058 E0.0832 F60
G91
G1 E-0.05 F60
G90
G0 Z5 F300
; 454 PAD214
G0 X47.747 Y28.358 F1200
G1 Z0.2 F300
G92 E0
G1 X48.787 Y28.358 E0.0832 F60
G91
G1 E-0.05 F60
G90
G0 Z5 F300
; 455 PAD214
G0 X48.787 Y28.658 F1200
G1 Z0.2 F300
G92 E0
G1 X47.747 Y28.658 E0.0832 F60
G91
G1 E-0.05 F60
G90
G0 Z5 F300
; 456 PAD214
G0 X47.747 Y28.958 F1200
G1 Z0.2 F300
G92 E0
G1 X48.787 Y28.958 E0.0832 F60
G91
G1 E-0.05 F60
G90
G0 Z5 F300
; 457 PAD214
G0 X48.787 Y29.258 F1200
G1 Z0.2 F300
G92 E0
G1 X47.747 Y29.258 E0.0832 F60
G91
G1 E-0.05 F60
G90
G0 Z5 F300
; 458 PAD214
G0 X47.747 Y29.558 F1200
G1 Z0.2 F300
G92 E0
G1 X48.787 Y29.558 E0.0832 F60
G91
G1 E-0.05 F60
G90
G0 Z5 F300
; 459 PAD214
G0 X48.787 Y29.858 F1200
G1 Z0.2 F300
G92 E0
G1 X47.747 Y29.858 E0.0832 F60
G91
G1 E-0.05 F60
G90
G0 Z5 F300
; 460 PAD214
G0 X47.747 Y30.158 F1200
G1 Z0.2 F300
G92 E0
G1 X48.787 Y30.158 E0.0832 F60
G91
G1 E-0.05 F60
G90
G0 Z5 F300
; 461 PAD214
G0 X48.787 Y30.458 F1200
G1 Z0.2 F300
G92 E0
G1 X47.747 Y30.458 E0.0832 F60
G91
G1 E-0.05 F60
G90
G0 Z5 F300
; 462 PAD214
G0 X47.747 Y30.758 F1200
G1 Z0.2 F300
G92 E0
G1 X48.787 Y30.758 E0.0832 F60
G91
G1 E-0.05 F60
G90
G0 Z5 F300
; 463 PAD214
G0 X48.787 Y31.058 F1200
G1 Z0.2 F300
G92 E0
G1 X47.747 Y31.058 E0.0832 F60
G91
G1 E-0.05 F60
G90
G0 Z5 F300
; 464 PAD214
G0 X47.747 Y31.358 F1200
G1 Z0.2 F300
G92 E0
G1 X48.787 Y31.358 E0.0832 F60
G91
G1 E-0.05 F60
G90
G0 Z5 F300
; 465 PAD215
G0 X58.053 Y52.924 F1200
G1 Z0.2 F300
G92 E0
G1 X58.493 Y52.924 E0.0352 F60
G91
G1 E-0.05 F60
G90
G0 Z5 F300
; 466 PAD215
G0 X58.493 Y53.224 F1200
G1 Z0.2 F300
G92 E0
G1 X58.053 Y53.224 E0.0352 F60
G91
G1 E-0.05 F60
G90
G0 Z5 F300
; 467 PAD215
G0 X58.053 Y53.524 F1200
G1 Z0.2 F300
G92 E0
G1 X58.493 Y53.524 E0.0352 F60
G91
G1 E-0.05 F60
G90
G0 Z5 F300
; 468 PAD215
G0 X58.493 Y53.824 F1200
G1 Z0.2 F300
G92 E0
G1 X58.053 Y53.824 E0.0352 F60
G91
G1 E-0.05 F60
G90
G0 Z5 F300
; 469 PAD216
G0 X56.783 Y52.924 F1200
G1 Z0.2 F300
G92 E0
G1 X57.223 Y52.924 E0.0352 F60
G91
G1 E-0.05 F60
G90
G0 Z5 F300
; 470 PAD216
G0 X57.223 Y53.224 F1200
G1 Z0.2 F300
G92 E0
G1 X56.783 Y53.224 E0.0352 F60
G91
G1 E-0.05 F60
G90
G0 Z5 F300
; 471 PAD216
G0 X56.783 Y53.524 F1200
G1 Z0.2 F300
G92 E0
G1 X57.223 Y53.524 E0.0352 F60
G91
G1 E-0.05 F60
G90
G0 Z5 F300
; 472 PAD216
G0 X57.223 Y53.824 F1200
G1 Z0.2 F300
G92 E0
G1 X56.783 Y53.824 E0.0352 F60
G91
G1 E-0.05 F60
G90
G0 Z5 F300
; 473 PAD217
G0 X55.513 Y52.924 F1200
G1 Z0.2 F300
G92 E0
G1 X55.953 Y52.924 E0.0352 F60
G91
G1 E-0.05 F60
G90
G0 Z5 F300
; 474 PAD217
G0 X55.953 Y53.224 F1200
G1 Z0.2 F300
G92 E0
G1 X55.513 Y53.224 E0.0352 F60
G91
G1 E-0.05 F60
G90
G0 Z5 F300
; 475 PAD217
G0 X55.513 Y53.524 F1200
G1 Z0.2 F300
G92 E0
G1 X55.953 Y53.524 E0.0352 F60
G91
G1 E-0.05 F60
G90
G0 Z5 F300
; 476 PAD217
G0 X55.953 Y53.824 F1200
G1 Z0.2 F300
G92 E0
G1 X55.513 Y53.824 E0.0352 F60
G91
G1 E-0.05 F60
G90
G0 Z5 F300
; 477 PAD218
G0 X54.243 Y52.924 F1200
G1 Z0.2 F300
G92 E0
G1 X54.683 Y52.924 E0.0352 F60
G91
G1 E-0.05 F60
G90
G0 Z5 F300
; 478 PAD218
G0 X54.683 Y53.224 F1200
G1 Z0.2 F300
G92 E0
G1 X54.243 Y53.224 E0.0352 F60
G91
G1 E-0.05 F60
G90
G0 Z5 F300
; 479 PAD218
G0 X54.243 Y53.524 F1200
G1 Z0.2 F300
G92 E0
G1 X54.683 Y53.524 E0.0352 F60
G91
G1 E-0.05 F60
G90
G0 Z5 F300
; 480 PAD218
G0 X54.683 Y53.824 F1200
G1 Z0.2 F300
G92 E0
G1 X54.243 Y53.824 E0.0352 F60
G91
G1 E-0.05 F60
G90
G0 Z5 F300
; 481 PAD219
G0 X54.243 Y47.108 F1200
G1 Z0.2 F300
G92 E0
G1 X54.683 Y47.108 E0.0352 F60
G91
G1 E-0.05 F60
G90
G0 Z5 F300
; 482 PAD219
G0 X54.683 Y47.408 F1200
G1 Z0.2 F300
G92 E0
G1 X54.243 Y47.408 E0.0352 F60
G91
G1 E-0.05 F60
G90
G0 Z5 F300
; 483 PAD219
G0 X54.243 Y47.708 F1200
G1 Z0.2 F300
G92 E0
G1 X54.683 Y47.708 E0.0352 F60
G91
G1 E-0.05 F60
G90
G0 Z5 F300
; 484 PAD219
G0 X54.683 Y48.008 F1200
G1 Z0.2 F300
G92 E0
G1 X54.243 Y48.008 E0.0352 F60
G91
G1 E-0.05 F60
G90
G0 Z5 F300
; 485 PAD220
G0 X55.513 Y47.108 F1200
G1 Z0.2 F300
G92 E0
G1 X55.953 Y47.108 E0.0352 F60
G91
G1 E-0.05 F60
G90
G0 Z5 F300
; 486 PAD220
G0 X55.953 Y47.408 F1200
G1 Z0.2 F300
G92 E0
G1 X55.513 Y47.408 E0.0352 F60
G91
G1 E-0.05 F60
G90
G0 Z5 F300
; 487 PAD220
G0 X55.513 Y47.708 F1200
G1 Z0.2 F300
G92 E0
G1 X55.953 Y47.708 E0.0352 F60
G91
G1 E-0.05 F60
G90
G0 Z5 F300
; 488 PAD220
G0 X55.953 Y48.008 F1200
G1 Z0.2 F300
G92 E0
G1 X55.513 Y48.008 E0.0352 F60
G91
G1 E-0.05 F60
G90
G0 Z5 F300
; 489 PAD221
G0 X56.783 Y47.108 F1200
G1 Z0.2 F300
G92 E0
G1 X57.223 Y47.108 E0.0352 F60
G91
G1 E-0.05 F60
G90
G0 Z5 F300
; 490 PAD221
G0 X57.223 Y47.408 F1200
G1 Z0.2 F300
G92 E0
G1 X56.783 Y47.408 E0.0352 F60
G91
G1 E-0.05 F60
G90
G0 Z5 F300
; 491 PAD221
G0 X56.783 Y47.708 F1200
G1 Z0.2 F300
G92 E0
G1 X57.223 Y47.708 E0.0352 F60
G91
G1 E-0.05 F60
G90
G0 Z5 F300
; 492 PAD221
G0 X57.223 Y48.008 F1200
G1 Z0.2 F300
G92 E0
G1 X56.783 Y48.008 E0.0352 F60
G91
G1 E-0.05 F60
G90
G0 Z5 F300
; 493 PAD222
G0 X58.053 Y47.108 F1200
G1 Z0.2 F300
G92 E0
G1 X58.493 Y47.108 E0.0352 F60
G91
G1 E-0.05 F60
G90
G0 Z5 F300
; 494 PAD222
G0 X58.493 Y47.408 F1200
G1 Z0.2 F300
G92 E0
G1 X58.053 Y47.408 E0.0352 F60
G91
G1 E-0.05 F60
G90
G0 Z5 F300
; 495 PAD222
G0 X58.053 Y47.708 F1200
G1 Z0.2 F300
G92 E0
G1 X58.493 Y47.708 E0.0352 F60
G91
G1 E-0.05 F60
G90
G0 Z5 F300
; 496 PAD222
G0 X58.493 Y48.008 F1200
G1 Z0.2 F300
G92 E0
G1 X58.053 Y48.008 E0.0352 F60
G91
G1 E-0.05 F60
G90
G0 Z5 F300
; 497 PAD223
G0 X54.798 Y49.416 F1200
G1 Z0.2 F300
G92 E0
G1 X57.938 Y49.416 E0.2512 F60
G91
G1 E-0.05 F60
G90
G0 Z5 F300
; 498 PAD223
G0 X57.938 Y49.716 F1200
G1 Z0.2 F300
G92 E0
G1 X54.798 Y49.716 E0.2512 F60
G91
G1 E-0.05 F60
G90
G0 Z5 F300
; 499 PAD223
G0 X54.798 Y50.016 F1200
G1 Z0.2 F300
G92 E0
G1 X57.938 Y50.016 E0.2512 F60
G91
G1 E-0.05 F60
G90
G0 Z5 F300
; 500 PAD223
G0 X57.938 Y50.316 F1200
G1 Z0.2 F300
G92 E0
G1 X54.798 Y50.316 E0.2512 F60
G91
G1 E-0.05 F60
G90
G0 Z5 F300
; 501 PAD223
G0 X54.798 Y50.616 F1200
G1 Z0.2 F300
G92 E0
G1 X57.938 Y50.616 E0.2512 F60
G91
G1 E-0.05 F60
G90
G0 Z5 F300
; 502 PAD223
G0 X57.938 Y50.916 F1200
G1 Z0.2 F300
G92 E0
G1 X54.798 Y50.916 E0.2512 F60
G91
G1 E-0.05 F60
G90
G0 Z5 F300
; 503 PAD223
G0 X54.798 Y51.216 F1200
G1 Z0.2 F300
G92 E0
G1 X57.938 Y51.216 E0.2512 F60
G91
G1 E-0.05 F60
G90
G0 Z5 F300
; 504 PAD223
G0 X57.938 Y51.516 F1200
G1 Z0.2 F300
G92 E0
G1 X54.798 Y51.516 E0.2512 F60
G91
G1 E-0.05 F60
G90
G0 Z5 F300
; 505 PAD224
G0 X26.402 Y53.342 F1200
G1 Z0.2 F300
G92 E0
G1 X27.492 Y53.342 E0.0872 F60
G91
G1 E-0.05 F60
G90
G0 Z5 F300
; 506 PAD224
G0 X27.492 Y53.642 F1200
G1 Z0.2 F300
G92 E0
G1 X26.402 Y53.642 E0.0872 F60
G91
G1 E-0.05 F60
G90
G0 Z5 F300
; 507 PAD225
G0 X26.402 Y51.442 F1200
G1 Z0.2 F300
G92 E0
G1 X27.492 Y51.442 E0.0872 F60
G91
G1 E-0.05 F60
G90
G0 Z5 F300
; 508 PAD225
G0 X27.492 Y51.742 F1200
G1 Z0.2 F300
G92 E0
G1 X26.402 Y51.742 E0.0872 F60
G91
G1 E-0.05 F60
G90
G0 Z5 F300
; 509 PAD226
G0 X28.402 Y52.392 F1200
G1 Z0.2 F300
G92 E0
G1 X29.492 Y52.392 E0.0872 F60
G91
G1 E-0.05 F60
G90
G0 Z5 F300
; 510 PAD226
G0 X29.492 Y52.692 F1200
G1 Z0.2 F300
G92 E0
G1 X28.402 Y52.692 E0.0872 F60
G91
G1 E-0.05 F60
G90
G0 Z5 F300
; 511 PAD227
G0 X46.999 Y60.395 F1200
G1 Z0.2 F300
G92 E0
G1 X48.339 Y60.395 E0.1072 F60
G91
G1 E-0.05 F60
G90
G0 Z5 F300
; 512 PAD227
G0 X48.339 Y60.695 F1200
G1 Z0.2 F300
G92 E0
G1 X46.999 Y60.695 E0.1072 F60
G91
G1 E-0.05 F60
G90
G0 Z5 F300
; 513 PAD227
G0 X46.999 Y60.995 F1200
G1 Z0.2 F300
G92 E0
G1 X48.339 Y60.995 E0.1072 F60
G91
G1 E-0.05 F60
G90
G0 Z5 F300
; 514 PAD227
G0 X48.339 Y61.295 F1200
G1 Z0.2 F300
G92 E0
G1 X46.999 Y61.295 E0.1072 F60
G91
G1 E-0.05 F60
G90
G0 Z5 F300
; 515 PAD227
G0 X46.999 Y61.595 F1200
G1 Z0.2 F300
G92 E0
G1 X48.339 Y61.595 E0.1072 F60
G91
G1 E-0.05 F60
G90
G0 Z5 F300
; 516 PAD227
G0 X48.339 Y61.895 F1200
G1 Z0.2 F300
G92 E0
G1 X46.999 Y61.895 E0.1072 F60
G91
G1 E-0.05 F60
G90
G0 Z5 F300
; 517 PAD227
G0 X46.999 Y62.195 F1200
G1 Z0.2 F300
G92 E0
G1 X48.339 Y62.195 E0.1072 F60
G91
G1 E-0.05 F60
G90
G0 Z5 F300
; 518 PAD228
G0 X52.379 Y60.395 F1200
G1 Z0.2 F300
G92 E0
G1 X53.719 Y60.395 E0.1072 F60
G91
G1 E-0.05 F60
G90
G0 Z5 F300
; 519 PAD228
G0 X53.719 Y60.695 F1200
G1 Z0.2 F300
G92 E0
G1 X52.379 Y60.695 E0.1072 F60
G91
G1 E-0.05 F60
G90
G0 Z5 F300
; 520 PAD228
G0 X52.379 Y60.995 F1200
G1 Z0.2 F300
G92 E0
G1 X53.719 Y60.995 E0.1072 F60
G91
G1 E-0.05 F60
G90
G0 Z5 F300
; 521 PAD228
G0 X53.719 Y61.295 F1200
G1 Z0.2 F300
G92 E0
G1 X52.379 Y61.295 E0.1072 F60
G91
G1 E-0.05 F60
G90
G0 Z5 F300
; 522 PAD228
G0 X52.379 Y61.595 F1200
G1 Z0.2 F300
G92 E0
G1 X53.719 Y61.595 E0.1072 F60
G91
G1 E-0.05 F60
G90
G0 Z5 F300
; 523 PAD228
G0 X53.719 Y61.895 F1200
G1 Z0.2 F300
G92 E0
G1 X52.379 Y61.895 E0.1072 F60
G91
G1 E-0.05 F60
G90
G0 Z5 F300
; 524 PAD228
G0 X52.379 Y62.195 F1200
G1 Z0.2 F300
G92 E0
G1 X53.719 Y62.195 E0.1072 F60
G91
G1 E-0.05 F60
G90
G0 Z5 F300
; 525 PAD229
G0 X24.299 Y23.644 F1200
G1 Z0.2 F300
G91
G1 E0.5 F60
G1 E-0.05 F60
G90
G0 Z5 F300
; 526 PAD230
G0 X23.799 Y23.644 F1200
G1 Z0.2 F300
G91
G1 E0.5 F60
G1 E-0.05 F60
G90
G0 Z5 F300
; 527 PAD231
G0 X23.299 Y23.644 F1200
G1 Z0.2 F300
G91
G1 E0.5 F60
G1 E-0.05 F60
G90
G0 Z5 F300
; 528 PAD232
G0 X22.799 Y23.644 F1200
G1 Z0.2 F300
G91
G1 E0.5 F60
G1 E-0.05 F60
G90
G0 Z5 F300
; 529 PAD233
G0 X22.299 Y23.644 F1200
G1 Z0.2 F300
G91
G1 E0.5 F60
G1 E-0.05 F60
G90
G0 Z5 F300
; 530 PAD234
G0 X24.299 Y19.424 F1200
G1 Z0.2 F300
G91
G1 E0.5 F60
G1 E-0.05 F60
G90
G0 Z5 F300
; 531 PAD235
G0 X23.799 Y19.424 F1200
G1 Z0.2 F300
G91
G1 E0.5 F60
G1 E-0.05 F60
G90
G0 Z5 F300
; 532 PAD236
G0 X23.299 Y19.424 F1200
G1 Z0.2 F300
G91
G1 E0.5 F60
G1 E-0.05 F60
G90
G0 Z5 F300
; 533 PAD237
G0 X22.799 Y19.424 F1200
G1 Z0.2 F300
G91
G1 E0.5 F60
G1 E-0.05 F60
G90
G0 Z5 F300
; 534 PAD238
G0 X22.299 Y19.424 F1200
G1 Z0.2 F300
G91
G1 E0.5 F60
G1 E-0.05 F60
G90
G0 Z5 F300
; 535 PAD239
G0 X54.732 Y22.418 F1200
G1 Z0.2 F300
G92 E0
G1 X55.772 Y22.418 E0.0832 F60
G91
G1 E-0.05 F60
G90
G0 Z5 F300
; 536 PAD239
G0 X55.772 Y22.718 F1200
G1 Z0.2 F300
G92 E0
G1 X54.732 Y22.718 E0.0832 F60
G91
G1 E-0.05 F60
G90
G0 Z5 F300
; 537 PAD239
G0 X54.732 Y23.018 F1200
G1 Z0.2 F300
G92 E0
G1 X55.772 Y23.018 E0.0832 F60
G91
G1 E-0.05 F60
G90
G0 Z5 F300
; 538 PAD239
G0 X55.772 Y23.318 F1200
G1 Z0.2 F300
G92 E0
G1 X54.732 Y23.318 E0.0832 F60
G91
G1 E-0.05 F60
G90
G0 Z5 F300
; 539 PAD239
G0 X54.732 Y23.618 F1200
G1 Z0.2 F300
G92 E0
G1 X55.772 Y23.618 E0.0832 F60
G91
G1 E-0.05 F60
G90
G0 Z5 F300
; 540 PAD239
G0 X55.772 Y23.918 F1200
G1 Z0.2 F300
G92 E0
G1 X54.732 Y23.918 E0.0832 F60
G91
G1 E-0.05 F60
G90
G0 Z5 F300
; 541 PAD239
G0 X54.732 Y24.218 F1200
G1 Z0.2 F300
G92 E0
G1 X55.772 Y24.218 E0.0832 F60
G91
G1 E-0.05 F60
G90
G0 Z5 F300
; 542 PAD239
G0 X55.772 Y24.518 F1200
G1 Z0.2 F300
G92 E0
G1 X54.732 Y24.518 E0.0832 F60
G91
G1 E-0.05 F60
G90
G0 Z5 F300
; 543 PAD239
G0 X54.732 Y24.818 F1200
G1 Z0.2 F300
G92 E0
G1 X55.772 Y24.818 E0.0832 F60
G91
G1 E-0.05 F60
G90
G0 Z5 F300
; 544 PAD239
G0 X55.772 Y25.118 F1200
G1 Z0.2 F300
G92 E0
G1 X54.732 Y25.118 E0.0832 F60
G91
G1 E-0.05 F60
G90
G0 Z5 F300
; 545 PAD239
G0 X54.732 Y25.418 F1200
G1 Z0.2 F300
G92 E0
G1 X55.772 Y25.418 E0.0832 F60
G91
G1 E-0.05 F60
G90
G0 Z5 F300
; 546 PAD239
G0 X55.772 Y25.718 F1200
G1 Z0.2 F300
G92 E0
G1 X54.732 Y25.718 E0.0832 F60
G91
G1 E-0.05 F60
G90
G0 Z5 F300
; 547 PAD239
G0 X54.732 Y26.018 F1200
G1 Z0.2 F300
G92 E0
G1 X55.772 Y26.018 E0.0832 F60
G91
G1 E-0.05 F60
G90
G0 Z5 F300
; 548 PAD240
G0 X54.732 Y27.758 F1200
G1 Z0.2 F300
G92 E0
G1 X55.772 Y27.758 E0.0832 F60
G91
G1 E-0.05 F60
G90
G0 Z5 F300
; 549 PAD240
G0 X55.772 Y28.058 F1200
G1 Z0.2 F300
G92 E0
G1 X54.732 Y28.058 E0.0832 F60
G91
G1 E-0.05 F60
G90
G0 Z5 F300
; 550 PAD240
G0 X54.732 Y28.358 F1200
G1 Z0.2 F300
G92 E0
G1 X55.772 Y28.358 E0.0832 F60
G91
G1 E-0.05 F60
G90
G0 Z5 F300
; 551 PAD240
G0 X55.772 Y28.658 F1200
G1 Z0.2 F300
G92 E0
G1 X54.732 Y28.658 E0.0832 F60
G91
G1 E-0.05 F60
G90
G0 Z5 F300
; 552 PAD240
G0 X54.732 Y28.958 F1200
G1 Z0.2 F300
G92 E0
G1 X55.772 Y28.958 E0.0832 F60
G91
G1 E-0.05 F60
G90
G0 Z5 F300
; 553 PAD240
G0 X55.772 Y29.258 F1200
G1 Z0.2 F300
G92 E0
G1 X54.732 Y29.258 E0.0832 F60
G91
G1 E-0.05 F60
G90
G0 Z5 F300
; 554 PAD240
G0 X54.732 Y29.558 F1200
G1 Z0.2 F300
G92 E0
G1 X55.772 Y29.558 E0.0832 F60
G91
G1 E-0.05 F60
G90
G0 Z5 F300
; 555 PAD240
G0 X55.772 Y29.858 F1200
G1 Z0.2 F300
G92 E0
G1 X54.732 Y29.858 E0.0832 F60
G91
G1 E-0.05 F60
G90
G0 Z5 F300
; 556 PAD240
G0 X54.732 Y30.158 F1200
G1 Z0.2 F300
G92 E0
G1 X55.772 Y30.158 E0.0832 F60
G91
G1 E-0.05 F60
G90
G0 Z5 F300
; 557 PAD240
G0 X55.772 Y30.458 F1200
G1 Z0.2 F300
G92 E0
G1 X54.732 Y30.458 E0.0832 F60
G91
G1 E-0.05 F60
G90
G0 Z5 F300
; 558 PAD240
G0 X54.732 Y30.758 F1200
G1 Z0.2 F300
G92 E0
G1 X55.772 Y30.758 E0.0832 F60
G91
G1 E-0.05 F60
G90
G0 Z5 F300
; 559 PAD240
G0 X55.772 Y31.058 F1200
G1 Z0.2 F300
G92 E0
G1 X54.732 Y31.058 E0.0832 F60
G91
G1 E-0.05 F60
G90
G0 Z5 F300
; 560 PAD240
G0 X54.732 Y31.358 F1200
G1 Z0.2 F300
G92 E0
G1 X55.772 Y31.358 E0.0832 F60
G91
G1 E-0.05 F60
G90
G0 Z5 F300
; 561 PAD241
G0 X12.053 Y40.768 F1200
G1 Z0.2 F300
G92 E0
G1 X15.393 Y40.768 E0.2672 F60
G91
G1 E-0.05 F60
G90
G0 Z5 F300
; 562 PAD241
G0 X15.393 Y41.068 F1200
G1 Z0.2 F300
G92 E0
G1 X12.053 Y41.068 E0.2672 F60
G91
G1 E-0.05 F60
G90
G0 Z5 F300
; 563 PAD241
G0 X12.053 Y41.368 F1200
G1 Z0.2 F300
G92 E0
G1 X15.393 Y41.368 E0.2672 F60
G91
G1 E-0.05 F60
G90
G0 Z5 F300
; 564 PAD241
G0 X15.393 Y41.668 F1200
G1 Z0.2 F300
G92 E0
G1 X12.053 Y41.668 E0.2672 F60
G91
G1 E-0.05 F60
G90
G0 Z5 F300
; 565 PAD241
G0 X12.053 Y41.968 F1200
G1 Z0.2 F300
G92 E0
G1 X15.393 Y41.968 E0.2672 F60
G91
G1 E-0.05 F60
G90
G0 Z5 F300
; 566 PAD241
G0 X15.393 Y42.268 F1200
G1 Z0.2 F300
G92 E0
G1 X12.053 Y42.268 E0.2672 F60
G91
G1 E-0.05 F60
G90
G0 Z5 F300
; 567 PAD241
G0 X12.053 Y42.568 F1200
G1 Z0.2 F300
G92 E0
G1 X15.393 Y42.568 E0.2672 F60
G91
G1 E-0.05 F60
G90
G0 Z5 F300
; 568 PAD241
G0 X15.393 Y42.868 F1200
G1 Z0.2 F300
G92 E0
G1 X12.053 Y42.868 E0.2672 F60
G91
G1 E-0.05 F60
G90
G0 Z5 F300
; 569 PAD242
G0 X12.053 Y46.468 F1200
G1 Z0.2 F300
G92 E0
G1 X15.393 Y46.468 E0.2672 F60
G91
G1 E-0.05 F60
G90
G0 Z5 F300
; 570 PAD242
G0 X15.393 Y46.768 F1200
G1 Z0.2 F300
G92 E0
G1 X12.053 Y46.768 E0.2672 F60
G91
G1 E-0.05 F60
G90
G0 Z5 F300
; 571 PAD242
G0 X12.053 Y47.068 F1200
G1 Z0.2 F300
G92 E0
G1 X15.393 Y47.068 E0.2672 F60
G91
G1 E-0.05 F60
G90
G0 Z5 F300
; 572 PAD242
G0 X15.393 Y47.368 F1200
G1 Z0.2 F300
G92 E0
G1 X12.053 Y47.368 E0.2672 F60
G91
G1 E-0.05 F60
G90
G0 Z5 F300
; 573 PAD242
G0 X12.053 Y47.668 F1200
G1 Z0.2 F300
G92 E0
G1 X15.393 Y47.668 E0.2672 F60
G91
G1 E-0.05 F60
G90
G0 Z5 F300
; 574 PAD242
G0 X15.393 Y47.968 F1200
G1 Z0.2 F300
G92 E0
G1 X12.053 Y47.968 E0.2672 F60
G91
G1 E-0.05 F60
G90
G0 Z5 F300
; 575 PAD242
G0 X12.053 Y48.268 F1200
G1 Z0.2 F300
G92 E0
G1 X15.393 Y48.268 E0.2672 F60
G91
G1 E-0.05 F60
G90
G0 Z5 F300
; 576 PAD242
G0 X15.393 Y48.568 F1200
G1 Z0.2 F300
G92 E0
G1 X12.053 Y48.568 E0.2672 F60
G91
G1 E-0.05 F60
G90
G0 Z5 F300
; 577 PAD243
G0 X9.251 Y25.582 F1200
G1 Z0.2 F300
G91
G1 E0.5 F60
G1 E-0.05 F60
G90
G0 Z5 F300
; 578 PAD244
G0 X9.251 Y25.082 F1200
G1 Z0.2 F300
G91
G1 E0.5 F60
G1 E-0.05 F60
G90
G0 Z5 F300
; 579 PAD245
G0 X9.251 Y24.582 F1200
G1 Z0.2 F300
G91
G1 E0.5 F60
G1 E-0.05 F60
G90
G0 Z5 F300
; 580 PAD246
G0 X9.251 Y24.082 F1200
G1 Z0.2 F300
G91
G1 E0.5 F60
G1 E-0.05 F60
G90
G0 Z5 F300
; 581 PAD247
G0 X9.251 Y23.582 F1200
G1 Z0.2 F300
G91
G1 E0.5 F60
G1 E-0.05 F60
G90
G0 Z5 F300
; 582 PAD248
G0 X13.471 Y25.582 F1200
G1 Z0.2 F300
G91
G1 E0.5 F60
G1 E-0.05 F60
G90
G0 Z5 F300
; 583 PAD249
G0 X13.471 Y25.082 F1200
G1 Z0.2 F300
G91
G1 E0.5 F60
G1 E-0.05 F60
G90
G0 Z5 F300
; 584 PAD250
G0 X13.471 Y24.582 F1200
G1 Z0.2 F300
G91
G1 E0.5 F60
G1 E-0.05 F60
G90
G0 Z5 F300
; 585 PAD251
G0 X13.471 Y24.082 F1200
G1 Z0.2 F300
G91
G1 E0.5 F60
G1 E-0.05 F60
G90
G0 Z5 F300
; 586 PAD252
G0 X13.471 Y23.582 F1200
G1 Z0.2 F300
G91
G1 E0.5 F60
G1 E-0.05 F60
G90
G0 Z5 F300
; 587 PAD253
G0 X26.31 Y47.98 F1200
G1 Z0.2 F300
G92 E0
G1 X27.15 Y47.98 E0.0672 F60
G91
G1 E-0.05 F60
G90
G0 Z5 F300
; 588 PAD253
G0 X27.15 Y48.28 F1200
G1 Z0.2 F300
G92 E0
G1 X26.31 Y48.28 E0.0672 F60
G91
G1 E-0.05 F60
G90
G0 Z5 F300
; 589 PAD253
G0 X26.31 Y48.58 F1200
G1 Z0.2 F300
G92 E0
G1 X27.15 Y48.58 E0.0672 F60
G91
G1 E-0.05 F60
G90
G0 Z5 F300
; 590 PAD254
G0 X28.61 Y48.93 F1200
G1 Z0.2 F300
G92 E0
G1 X29.45 Y48.93 E0.0672 F60
G91
G1 E-0.05 F60
G90
G0 Z5 F300
; 591 PAD254
G0 X29.45 Y49.23 F1200
G1 Z0.2 F300
G92 E0
G1 X28.61 Y49.23 E0.0672 F60
G91
G1 E-0.05 F60
G90
G0 Z5 F300
; 592 PAD254
G0 X28.61 Y49.53 F1200
G1 Z0.2 F300
G92 E0
G1 X29.45 Y49.53 E0.0672 F60
G91
G1 E-0.05 F60
G90
G0 Z5 F300
; 593 PAD255
G0 X26.31 Y49.88 F1200
G1 Z0.2 F300
G92 E0
G1 X27.15 Y49.88 E0.0672 F60
G91
G1 E-0.05 F60
G90
G0 Z5 F300
; 594 PAD255
G0 X27.15 Y50.18 F1200
G1 Z0.2 F300
G92 E0
G1 X26.31 Y50.18 E0.0672 F60
G91
G1 E-0.05 F60
G90
G0 Z5 F300
; 595 PAD255
G0 X26.31 Y50.48 F1200
G1 Z0.2 F300
G92 E0
G1 X27.15 Y50.48 E0.0672 F60
G91
G1 E-0.05 F60
G90
G0 Z5 F300
; 596 PAD256
G0 X55.731 Y38.31 F1200
G1 Z0.2 F300
G92 E0
G1 X56.671 Y38.31 E0.0752 F60
G91
G1 E-0.05 F60
G90
G0 Z5 F300
; 597 PAD256
G0 X56.671 Y38.61 F1200
G1 Z0.2 F300
G92 E0
G1 X55.731 Y38.61 E0.0752 F60
G91
G1 E-0.05 F60
G90
G0 Z5 F300
; 598 PAD256
G0 X55.731 Y38.91 F1200
G1 Z0.2 F300
G92 E0
G1 X56.671 Y38.91 E0.0752 F60
G91
G1 E-0.05 F60
G90
G0 Z5 F300
; 599 PAD256
G0 X56.671 Y39.21 F1200
G1 Z0.2 F300
G92 E0
G1 X55.731 Y39.21 E0.0752 F60
G91
G1 E-0.05 F60
G90
G0 Z5 F300
; 600 PAD256
G0 X55.731 Y39.51 F1200
G1 Z0.2 F300
G92 E0
G1 X56.671 Y39.51 E0.0752 F60
G91
G1 E-0.05 F60
G90
G0 Z5 F300
; 601 PAD256
G0 X56.671 Y39.81 F1200
G1 Z0.2 F300
G92 E0
G1 X55.731 Y39.81 E0.0752 F60
G91
G1 E-0.05 F60
G90
G0 Z5 F300
; 602 PAD256
G0 X55.731 Y40.11 F1200
G1 Z0.2 F300
G92 E0
G1 X56.671 Y40.11 E0.0752 F60
G91
G1 E-0.05 F60
G90
G0 Z5 F300
; 603 PAD256
G0 X56.671 Y40.41 F1200
G1 Z0.2 F300
G92 E0
G1 X55.731 Y40.41 E0.0752 F60
G91
G1 E-0.05 F60
G90
G0 Z5 F300
; 604 PAD256
G0 X55.731 Y40.71 F1200
G1 Z0.2 F300
G92 E0
G1 X56.671 Y40.71 E0.0752 F60
G91
G1 E-0.05 F60
G90
G0 Z5 F300
; 605 PAD257
G0 X55.731 Y42.51 F1200
G1 Z0.2 F300
G92 E0
G1 X56.671 Y42.51 E0.0752 F60
G91
G1 E-0.05 F60
G90
G0 Z5 F300
; 606 PAD257
G0 X56.671 Y42.81 F1200
G1 Z0.2 F300
G92 E0
G1 X55.731 Y42.81 E0.0752 F60
G91
G1 E-0.05 F60
G90
G0 Z5 F300
; 607 PAD257
G0 X55.731 Y43.11 F1200
G1 Z0.2 F300
G92 E0
G1 X56.671 Y43.11 E0.0752 F60
G91
G1 E-0.05 F60
G90
G0 Z5 F300
; 608 PAD257
G0 X56.671 Y43.41 F1200
G1 Z0.2 F300
G92 E0
G1 X55.731 Y43.41 E0.0752 F60
G91
G1 E-0.05 F60
G90
G0 Z5 F300
; 609 PAD257
G0 X55.731 Y43.71 F1200
G1 Z0.2 F300
G92 E0
G1 X56.671 Y43.71 E0.0752 F60
G91
G1 E-0.05 F60
G90
G0 Z5 F300
; 610 PAD257
G0 X56.671 Y44.01 F1200
G1 Z0.2 F300
G92 E0
G1 X55.731 Y44.01 E0.0752 F60
G91
G1 E-0.05 F60
G90
G0 Z5 F300
; 611 PAD257
G0 X55.731 Y44.31 F1200
G1 Z0.2 F300
G92 E0
G1 X56.671 Y44.31 E0.0752 F60
G91
G1 E-0.05 F60
G90
G0 Z5 F300
; 612 PAD257
G0 X56.671 Y44.61 F1200
G1 Z0.2 F300
G92 E0
G1 X55.731 Y44.61 E0.0752 F60
G91
G1 E-0.05 F60
G90
G0 Z5 F300
; 613 PAD257
G0 X55.731 Y44.91 F1200
G1 Z0.2 F300
G92 E0
G1 X56.671 Y44.91 E0.0752 F60
G91
G1 E-0.05 F60
G90
G0 Z5 F300
; 614 PAD258
G0 X18.048 Y46.296 F1200
G1 Z0.2 F300
G92 E0
G1 X19.602 Y46.296 E0.1243 F60
G91
G1 E-0.05 F60
G90
G0 Z5 F300
; 615 PAD258
G0 X19.602 Y46.596 F1200
G1 Z0.2 F300
G92 E0
G1 X18.048 Y46.596 E0.1243 F60
G91
G1 E-0.05 F60
G90
G0 Z5 F300
; 616 PAD259
G0 X18.048 Y45.026 F1200
G1 Z0.2 F300
G92 E0
G1 X19.602 Y45.026 E0.1243 F60
G91
G1 E-0.05 F60
G90
G0 Z5 F300
; 617 PAD259
G0 X19.602 Y45.326 F1200
G1 Z0.2 F300
G92 E0
G1 X18.048 Y45.326 E0.1243 F60
G91
G1 E-0.05 F60
G90
G0 Z5 F300
; 618 PAD260
G0 X18.048 Y43.756 F1200
G1 Z0.2 F300
G92 E0
G1 X19.602 Y43.756 E0.1243 F60
G91
G1 E-0.05 F60
G90
G0 Z5 F300
; 619 PAD260
G0 X19.602 Y44.056 F1200
G1 Z0.2 F300
G92 E0
G1 X18.048 Y44.056 E0.1243 F60
G91
G1 E-0.05 F60
G90
G0 Z5 F300
; 620 PAD261
G0 X18.048 Y42.486 F1200
G1 Z0.2 F300
G92 E0
G1 X19.602 Y42.486 E0.1243 F60
G91
G1 E-0.05 F60
G90
G0 Z5 F300
; 621 PAD261
G0 X19.602 Y42.786 F1200
G1 Z0.2 F300
G92 E0
G1 X18.048 Y42.786 E0.1243 F60
G91
G1 E-0.05 F60
G90
G0 Z5 F300
; 622 PAD262
G0 X23.593 Y46.296 F1200
G1 Z0.2 F300
G92 E0
G1 X25.146 Y46.296 E0.1243 F60
G91
G1 E-0.05 F60
G90
G0 Z5 F300
; 623 PAD262
G0 X25.146 Y46.596 F1200
G1 Z0.2 F300
G92 E0
G1 X23.593 Y46.596 E0.1243 F60
G91
G1 E-0.05 F60
G90
G0 Z5 F300
; 624 PAD263
G0 X23.593 Y45.026 F1200
G1 Z0.2 F300
G92 E0
G1 X25.146 Y45.026 E0.1243 F60
G91
G1 E-0.05 F60
G90
G0 Z5 F300
; 625 PAD263
G0 X25.146 Y45.326 F1200
G1 Z0.2 F300
G92 E0
G1 X23.593 Y45.326 E0.1243 F60
G91
G1 E-0.05 F60
G90
G0 Z5 F300
; 626 PAD264
G0 X23.593 Y43.756 F1200
G1 Z0.2 F300
G92 E0
G1 X25.146 Y43.756 E0.1243 F60
G91
G1 E-0.05 F60
G90
G0 Z5 F300
; 627 PAD264
G0 X25.146 Y44.056 F1200
G1 Z0.2 F300
G92 E0
G1 X23.593 Y44.056 E0.1243 F60
G91
G1 E-0.05 F60
G90
G0 Z5 F300
; 628 PAD265
G0 X23.593 Y42.486 F1200
G1 Z0.2 F300
G92 E0
G1 X25.146 Y42.486 E0.1243 F60
G91
G1 E-0.05 F60
G90
G0 Z5 F300
; 629 PAD265
G0 X25.146 Y42.786 F1200
G1 Z0.2 F300
G92 E0
G1 X23.593 Y42.786 E0.1243 F60
G91
G1 E-0.05 F60
G90
G0 Z5 F300
; 630 PAD266
G0 X20.532 Y43.491 F1200
G1 Z0.2 F300
G92 E0
G1 X22.662 Y43.491 E0.1704 F60
G91
G1 E-0.05 F60
G90
G0 Z5 F300
; 631 PAD266
G0 X22.662 Y43.791 F1200
G1 Z0.2 F300
G92 E0
G1 X20.532 Y43.791 E0.1704 F60
G91
G1 E-0.05 F60
G90
G0 Z5 F300
; 632 PAD266
G0 X20.532 Y44.091 F1200
G1 Z0.2 F300
G92 E0
G1 X22.662 Y44.091 E0.1704 F60
G91
G1 E-0.05 F60
G90
G0 Z5 F300
; 633 PAD266
G0 X22.662 Y44.391 F1200
G1 Z0.2 F300
G92 E0
G1 X20.532 Y44.391 E0.1704 F60
G91
G1 E-0.05 F60
G90
G0 Z5 F300
; 634 PAD266
G0 X20.532 Y44.691 F1200
G1 Z0.2 F300
G92 E0
G1 X22.662 Y44.691 E0.1704 F60
G91
G1 E-0.05 F60
G90
G0 Z5 F300
; 635 PAD266
G0 X22.662 Y44.991 F1200
G1 Z0.2 F300
G92 E0
G1 X20.532 Y44.991 E0.1704 F60
G91
G1 E-0.05 F60
G90
G0 Z5 F300
; 636 PAD266
G0 X20.532 Y45.291 F1200
G1 Z0.2 F300
G92 E0
G1 X22.662 Y45.291 E0.1704 F60
G91
G1 E-0.05 F60
G90
G0 Z5 F300
; 637 PAD266
G0 X22.662 Y45.591 F1200
G1 Z0.2 F300
G92 E0
G1 X20.532 Y45.591 E0.1704 F60
G91
G1 E-0.05 F60
G90
G0 Z5 F300
; 638 PAD267
G0 X8.492 Y46.931 F1200
G1 Z0.2 F300
G92 E0
G1 X9.532 Y46.931 E0.0832 F60
G91
G1 E-0.05 F60
G90
G0 Z5 F300
; 639 PAD267
G0 X9.532 Y47.231 F1200
G1 Z0.2 F300
G92 E0
G1 X8.492 Y47.231 E0.0832 F60
G91
G1 E-0.05 F60
G90
G0 Z5 F300
; 640 PAD268
G0 X8.492 Y48.201 F1200
G1 Z0.2 F300
G92 E0
G1 X9.532 Y48.201 E0.0832 F60
G91
G1 E-0.05 F60
G90
G0 Z5 F300
; 641 PAD268
G0 X9.532 Y48.501 F1200
G1 Z0.2 F300
G92 E0
G1 X8.492 Y48.501 E0.0832 F60
G91
G1 E-0.05 F60
G90
G0 Z5 F300
; 642 PAD269
G0 X8.492 Y49.471 F1200
G1 Z0.2 F300
G92 E0
G1 X9.532 Y49.471 E0.0832 F60
G91
G1 E-0.05 F60
G90
G0 Z5 F300
; 643 PAD269
G0 X9.532 Y49.771 F1200
G1 Z0.2 F300
G92 E0
G1 X8.492 Y49.771 E0.0832 F60
G91
G1 E-0.05 F60
G90
G0 Z5 F300
; 644 PAD270
G0 X8.492 Y50.741 F1200
G1 Z0.2 F300
G92 E0
G1 X9.532 Y50.741 E0.0832 F60
G91
G1 E-0.05 F60
G90
G0 Z5 F300
; 645 PAD270
G0 X9.532 Y51.041 F1200
G1 Z0.2 F300
G92 E0
G1 X8.492 Y51.041 E0.0832 F60
G91
G1 E-0.05 F60
G90
G0 Z5 F300
; 646 PAD271
G0 X2.675 Y50.741 F1200
G1 Z0.2 F300
G92 E0
G1 X3.715 Y50.741 E0.0832 F60
G91
G1 E-0.05 F60
G90
G0 Z5 F300
; 647 PAD271
G0 X3.715 Y51.041 F1200
G1 Z0.2 F300
G92 E0
G1 X2.675 Y51.041 E0.0832 F60
G91
G1 E-0.05 F60
G90
G0 Z5 F300
; 648 PAD272
G0 X2.675 Y49.471 F1200
G1 Z0.2 F300
G92 E0
G1 X3.715 Y49.471 E0.0832 F60
G91
G1 E-0.05 F60
G90
G0 Z5 F300
; 649 PAD272
G0 X3.715 Y49.771 F1200
G1 Z0.2 F300
G92 E0
G1 X2.675 Y49.771 E0.0832 F60
G91
G1 E-0.05 F60
G90
G0 Z5 F300
; 650 PAD273
G0 X2.675 Y48.201 F1200
G1 Z0.2 F300
G92 E0
G1 X3.715 Y48.201 E0.0832 F60
G91
G1 E-0.05 F60
G90
G0 Z5 F300
; 651 PAD273
G0 X3.715 Y48.501 F1200
G1 Z0.2 F300
G92 E0
G1 X2.675 Y48.501 E0.0832 F60
G91
G1 E-0.05 F60
G90
G0 Z5 F300
; 652 PAD274
G0 X2.675 Y46.931 F1200
G1 Z0.2 F300
G92 E0
G1 X3.715 Y46.931 E0.0832 F60
G91
G1 E-0.05 F60
G90
G0 Z5 F300
; 653 PAD274
G0 X3.715 Y47.231 F1200
G1 Z0.2 F300
G92 E0
G1 X2.675 Y47.231 E0.0832 F60
G91
G1 E-0.05 F60
G90
G0 Z5 F300
; 654 PAD275
G0 X4.983 Y47.486 F1200
G1 Z0.2 F300
G92 E0
G1 X7.223 Y47.486 E0.1792 F60
G91
G1 E-0.05 F60
G90
G0 Z5 F300
; 655 PAD275
G0 X7.223 Y47.786 F1200
G1 Z0.2 F300
G92 E0
G1 X4.983 Y47.786 E0.1792 F60
G91
G1 E-0.05 F60
G90
G0 Z5 F300
; 656 PAD275
G0 X4.983 Y48.086 F1200
G1 Z0.2 F300
G92 E0
G1 X7.223 Y48.086 E0.1792 F60
G91
G1 E-0.05 F60
G90
G0 Z5 F300
; 657 PAD275
G0 X7.223 Y48.386 F1200
G1 Z0.2 F300
G92 E0
G1 X4.983 Y48.386 E0.1792 F60
G91
G1 E-0.05 F60
G90
G0 Z5 F300
; 658 PAD275
G0 X4.983 Y48.686 F1200
G1 Z0.2 F300
G92 E0
G1 X7.223 Y48.686 E0.1792 F60
G91
G1 E-0.05 F60
G90
G0 Z5 F300
; 659 PAD275
G0 X7.223 Y48.986 F1200
G1 Z0.2 F300
G92 E0
G1 X4.983 Y48.986 E0.1792 F60
G91
G1 E-0.05 F60
G90
G0 Z5 F300
; 660 PAD275
G0 X4.983 Y49.286 F1200
G1 Z0.2 F300
G92 E0
G1 X7.223 Y49.286 E0.1792 F60
G91
G1 E-0.05 F60
G90
G0 Z5 F300
; 661 PAD275
G0 X7.223 Y49.586 F1200
G1 Z0.2 F300
G92 E0
G1 X4.983 Y49.586 E0.1792 F60
G91
G1 E-0.05 F60
G90
G0 Z5 F300
; 662 PAD275
G0 X4.983 Y49.886 F1200
G1 Z0.2 F300
G92 E0
G1 X7.223 Y49.886 E0.1792 F60
G91
G1 E-0.05 F60
G90
G0 Z5 F300
; 663 PAD275
G0 X7.223 Y50.186 F1200
G1 Z0.2 F300
G92 E0
G1 X4.983 Y50.186 E0.1792 F60
G91
G1 E-0.05 F60
G90
G0 Z5 F300
; 664 PAD275
G0 X4.983 Y50.486 F1200
G1 Z0.2 F300
G92 E0
G1 X7.223 Y50.486 E0.1792 F60
G91
G1 E-0.05 F60
G90
G0 Z5 F300
; 665 PAD276
G0 X40.115 Y25.087 F1200
G1 Z0.2 F300
G92 E0
G1 X41.155 Y25.087 E0.0832 F60
G91
G1 E-0.05 F60
G90
G0 Z5 F300
; 666 PAD276
G0 X41.155 Y25.387 F1200
G1 Z0.2 F300
G92 E0
G1 X40.115 Y25.387 E0.0832 F60
G91
G1 E-0.05 F60
G90
G0 Z5 F300
; 667 PAD277
G0 X40.115 Y26.357 F1200
G1 Z0.2 F300
G92 E0
G1 X41.155 Y26.357 E0.0832 F60
G91
G1 E-0.05 F60
G90
G0 Z5 F300
; 668 PAD277
G0 X41.155 Y26.657 F1200
G1 Z0.2 F300
G92 E0
G1 X40.115 Y26.657 E0.0832 F60
G91
G1 E-0.05 F60
G90
G0 Z5 F300
; 669 PAD278
G0 X40.115 Y27.627 F1200
G1 Z0.2 F300
G92 E0
G1 X41.155 Y27.627 E0.0832 F60
G91
G1 E-0.05 F60
G90
G0 Z5 F300
; 670 PAD278
G0 X41.155 Y27.927 F1200
G1 Z0.2 F300
G92 E0
G1 X40.115 Y27.927 E0.0832 F60
G91
G1 E-0.05 F60
G90
G0 Z5 F300
; 671 PAD279
G0 X40.115 Y28.897 F1200
G1 Z0.2 F300
G92 E0
G1 X41.155 Y28.897 E0.0832 F60
G91
G1 E-0.05 F60
G90
G0 Z5 F300
; 672 PAD279
G0 X41.155 Y29.197 F1200
G1 Z0.2 F300
G92 E0
G1 X40.115 Y29.197 E0.0832 F60
G91
G1 E-0.05 F60
G90
G0 Z5 F300
; 673 PAD280
G0 X34.298 Y28.897 F1200
G1 Z0.2 F300
G92 E0
G1 X35.338 Y28.897 E0.0832 F60
G91
G1 E-0.05 F60
G90
G0 Z5 F300
; 674 PAD280
G0 X35.338 Y29.197 F1200
G1 Z0.2 F300
G92 E0
G1 X34.298 Y29.197 E0.0832 F60
G91
G1 E-0.05 F60
G90
G0 Z5 F300
; 675 PAD281
G0 X34.298 Y27.627 F1200
G1 Z0.2 F300
G92 E0
G1 X35.338 Y27.627 E0.0832 F60
G91
G1 E-0.05 F60
G90
G0 Z5 F300
; 676 PAD281
G0 X35.338 Y27.927 F1200
G1 Z0.2 F300
G92 E0
G1 X34.298 Y27.927 E0.0832 F60
G91
G1 E-0.05 F60
G90
G0 Z5 F300
; 677 PAD282
G0 X34.298 Y26.357 F1200
G1 Z0.2 F300
G92 E0
G1 X35.338 Y26.357 E0.0832 F60
G91
G1 E-0.05 F60
G90
G0 Z5 F300
; 678 PAD282
G0 X35.338 Y26.657 F1200
G1 Z0.2 F300
G92 E0
G1 X34.298 Y26.657 E0.0832 F60
G91
G1 E-0.05 F60
G90
G0 Z5 F300
; 679 PAD283
G0 X34.298 Y25.087 F1200
G1 Z0.2 F300
G92 E0
G1 X35.338 Y25.087 E0.0832 F60
G91
G1 E-0.05 F60
G90
G0 Z5 F300
; 680 PAD283
G0 X35.338 Y25.387 F1200
G1 Z0.2 F300
G92 E0
G1 X34.298 Y25.387 E0.0832 F60
G91
G1 E-0.05 F60
G90
G0 Z5 F300
; 681 PAD284
G0 X36.606 Y25.642 F1200
G1 Z0.2 F300
G92 E0
G1 X38.846 Y25.642 E0.1792 F60
G91
G1 E-0.05 F60
G90
G0 Z5 F300
; 682 PAD284
G0 X38.846 Y25.942 F1200
G1 Z0.2 F300
G92 E0
G1 X36.606 Y25.942 E0.1792 F60
G91
G1 E-0.05 F60
G90
G0 Z5 F300
; 683 PAD284
G0 X36.606 Y26.242 F1200
G1 Z0.2 F300
G92 E0
G1 X38.846 Y26.242 E0.1792 F60
G91
G1 E-0.05 F60
G90
G0 Z5 F300
; 684 PAD284
G0 X38.846 Y26.542 F1200
G1 Z0.2 F300
G92 E0
G1 X36.606 Y26.542 E0.1792 F60
G91
G1 E-0.05 F60
G90
G0 Z5 F300
; 685 PAD284
G0 X36.606 Y26.842 F1200
G1 Z0.2 F300
G92 E0
G1 X38.846 Y26.842 E0.1792 F60
G91
G1 E-0.05 F60
G90
G0 Z5 F300
; 686 PAD284
G0 X38.846 Y27.142 F1200
G1 Z0.2 F300
G92 E0
G1 X36.606 Y27.142 E0.1792 F60
G91
G1 E-0.05 F60
G90
G0 Z5 F300
; 687 PAD284
G0 X36.606 Y27.442 F1200
G1 Z0.2 F300
G92 E0
G1 X38.846 Y27.442 E0.1792 F60
G91
G1 E-0.05 F60
G90
G0 Z5 F300
; 688 PAD284
G0 X38.846 Y27.742 F1200
G1 Z0.2 F300
G92 E0
G1 X36.606 Y27.742 E0.1792 F60
G91
G1 E-0.05 F60
G90
G0 Z5 F300
; 689 PAD284
G0 X36.606 Y28.042 F1200
G1 Z0.2 F300
G92 E0
G1 X38.846 Y28.042 E0.1792 F60
G91
G1 E-0.05 F60
G90
G0 Z5 F300
; 690 PAD284
G0 X38.846 Y28.342 F1200
G1 Z0.2 F300
G92 E0
G1 X36.606 Y28.342 E0.1792 F60
G91
G1 E-0.05 F60
G90
G0 Z5 F300
; 691 PAD284
G0 X36.606 Y28.642 F1200
G1 Z0.2 F300
G92 E0
G1 X38.846 Y28.642 E0.1792 F60
G91
G1 E-0.05 F60
G90
G0 Z5 F300
; 692 PAD285
G0 X40.638 Y55.779 F1200
G1 Z0.2 F300
G92 E0
G1 X41.878 Y55.779 E0.0992 F60
G91
G1 E-0.05 F60
G90
G0 Z5 F300
; 693 PAD285
G0 X41.878 Y56.079 F1200
G1 Z0.2 F300
G92 E0
G1 X40.638 Y56.079 E0.0992 F60
G91
G1 E-0.05 F60
G90
G0 Z5 F300
; 694 PAD285
G0 X40.638 Y56.379 F1200
G1 Z0.2 F300
G92 E0
G1 X41.878 Y56.379 E0.0992 F60
G91
G1 E-0.05 F60
G90
G0 Z5 F300
; 695 PAD285
G0 X41.878 Y56.679 F1200
G1 Z0.2 F300
G92 E0
G1 X40.638 Y56.679 E0.0992 F60
G91
G1 E-0.05 F60
G90
G0 Z5 F300
; 696 PAD286
G0 X42.838 Y55.779 F1200
G1 Z0.2 F300
G92 E0
G1 X44.078 Y55.779 E0.0992 F60
G91
G1 E-0.05 F60
G90
G0 Z5 F300
; 697 PAD286
G0 X44.078 Y56.079 F1200
G1 Z0.2 F300
G92 E0
G1 X42.838 Y56.079 E0.0992 F60
G91
G1 E-0.05 F60
G90
G0 Z5 F300
; 698 PAD286
G0 X42.838 Y56.379 F1200
G1 Z0.2 F300
G92 E0
G1 X44.078 Y56.379 E0.0992 F60
G91
G1 E-0.05 F60
G90
G0 Z5 F300
; 699 PAD286
G0 X44.078 Y56.679 F1200
G1 Z0.2 F300
G92 E0
G1 X42.838 Y56.679 E0.0992 F60
G91
G1 E-0.05 F60
G90
G0 Z5 F300
; 700 PAD287
G0 X42.838 Y57.529 F1200
G1 Z0.2 F300
G92 E0
G1 X44.078 Y57.529 E0.0992 F60
G91
G1 E-0.05 F60
G90
G0 Z5 F300
; 701 PAD287
G0 X44.078 Y57.829 F1200
G1 Z0.2 F300
G92 E0
G1 X42.838 Y57.829 E0.0992 F60
G91
G1 E-0.05 F60
G90
G0 Z5 F300
; 702 PAD287
G0 X42.838 Y58.129 F1200
G1 Z0.2 F300
G92 E0
G1 X44.078 Y58.129 E0.0992 F60
G91
G1 E-0.05 F60
G90
G0 Z5 F300
; 703 PAD287
G0 X44.078 Y58.429 F1200
G1 Z0.2 F300
G92 E0
G1 X42.838 Y58.429 E0.0992 F60
G91
G1 E-0.05 F60
G90
G0 Z5 F300
; 704 PAD288
G0 X40.638 Y57.529 F1200
G1 Z0.2 F300
G92 E0
G1 X41.878 Y57.529 E0.0992 F60
G91
G1 E-0.05 F60
G90
G0 Z5 F300
; 705 PAD288
G0 X41.878 Y57.829 F1200
G1 Z0.2 F300
G92 E0
G1 X40.638 Y57.829 E0.0992 F60
G91
G1 E-0.05 F60
G90
G0 Z5 F300
; 706 PAD288
G0 X40.638 Y58.129 F1200
G1 Z0.2 F300
G92 E0
G1 X41.878 Y58.129 E0.0992 F60
G91
G1 E-0.05 F60
G90
G0 Z5 F300
; 707 PAD288
G0 X41.878 Y58.429 F1200
G1 Z0.2 F300
G92 E0
G1 X40.638 Y58.429 E0.0992 F60
G91
G1 E-0.05 F60
G90
G0 Z5 F300
; 708 PAD289
G0 X0.08 Y52.377 F1200
G1 Z0.2 F300
G92 E0
G1 X1.02 Y52.377 E0.0752 F60
G91
G1 E-0.05 F60
G90
G0 Z5 F300
; 709 PAD289
G0 X1.02 Y52.677 F1200
G1 Z0.2 F300
G92 E0
G1 X0.08 Y52.677 E0.0752 F60
G91
G1 E-0.05 F60
G90
G0 Z5 F300
; 710 PAD290
G0 X0.08 Y53.327 F1200
G1 Z0.2 F300
G92 E0
G1 X1.02 Y53.327 E0.0752 F60
G91
G1 E-0.05 F60
G90
G0 Z5 F300
; 711 PAD290
G0 X1.02 Y53.627 F1200
G1 Z0.2 F300
G92 E0
G1 X0.08 Y53.627 E0.0752 F60
G91
G1 E-0.05 F60
G90
G0 Z5 F300
; 712 PAD291
G0 X0.08 Y54.277 F1200
G1 Z0.2 F300
G92 E0
G1 X1.02 Y54.277 E0.0752 F60
G91
G1 E-0.05 F60
G90
G0 Z5 F300
; 713 PAD291
G0 X1.02 Y54.577 F1200
G1 Z0.2 F300
G92 E0
G1 X0.08 Y54.577 E0.0752 F60
G91
G1 E-0.05 F60
G90
G0 Z5 F300
; 714 PAD292
G0 X2.78 Y54.277 F1200
G1 Z0.2 F300
G92 E0
G1 X3.72 Y54.277 E0.0752 F60
G91
G1 E-0.05 F60
G90
G0 Z5 F300
; 715 PAD292
G0 X3.72 Y54.577 F1200
G1 Z0.2 F300
G92 E0
G1 X2.78 Y54.577 E0.0752 F60
G91
G1 E-0.05 F60
G90
G0 Z5 F300
; 716 PAD293
G0 X2.78 Y53.327 F1200
G1 Z0.2 F300
G92 E0
G1 X3.72 Y53.327 E0.0752 F60
G91
G1 E-0.05 F60
G90
G0 Z5 F300
; 717 PAD293
G0 X3.72 Y53.627 F1200
G1 Z0.2 F300
G92 E0
G1 X2.78 Y53.627 E0.0752 F60
G91
G1 E-0.05 F60
G90
G0 Z5 F300
; 718 PAD294
G0 X2.78 Y52.377 F1200
G1 Z0.2 F300
G92 E0
G1 X3.72 Y52.377 E0.0752 F60
G91
G1 E-0.05 F60
G90
G0 Z5 F300
; 719 PAD294
G0 X3.72 Y52.677 F1200
G1 Z0.2 F300
G92 E0
G1 X2.78 Y52.677 E0.0752 F60
G91
G1 E-0.05 F60
G90
G0 Z5 F300
; 720 PAD295
G0 X45.913 Y44.585 F1200
G1 Z0.2 F300
G91
G1 E0.5 F60
G1 E-0.05 F60
G90
G0 Z5 F300
; 721 PAD296
G0 X45.913 Y45.085 F1200
G1 Z0.2 F300
G91
G1 E0.5 F60
G1 E-0.05 F60
G90
G0 Z5 F300
; 722 PAD297
G0 X45.913 Y45.585 F1200
G1 Z0.2 F300
G91
G1 E0.5 F60
G1 E-0.05 F60
G90
G0 Z5 F300
; 723 PAD298
G0 X45.913 Y46.085 F1200
G1 Z0.2 F300
G91
G1 E0.5 F60
G1 E-0.05 F60
G90
G0 Z5 F300
; 724 PAD299
G0 X45.913 Y46.585 F1200
G1 Z0.2 F300
G91
G1 E0.5 F60
G1 E-0.05 F60
G90
G0 Z5 F300
; 725 PAD300
G0 X45.913 Y47.085 F1200
G1 Z0.2 F300
G91
G1 E0.5 F60
G1 E-0.05 F60
G90
G0 Z5 F300
; 726 PAD301
G0 X45.913 Y47.585 F1200
G1 Z0.2 F300
G91
G1 E0.5 F60
G1 E-0.05 F60
G90
G0 Z5 F300
; 727 PAD302
G0 X45.913 Y48.085 F1200
G1 Z0.2 F300
G91
G1 E0.5 F60
G1 E-0.05 F60
G90
G0 Z5 F300
; 728 PAD303
G0 X45.913 Y48.585 F1200
G1 Z0.2 F300
G91
G1 E0.5 F60
G1 E-0.05 F60
G90
G0 Z5 F300
; 729 PAD304
G0 X45.913 Y49.085 F1200
G1 Z0.2 F300
G91
G1 E0.5 F60
G1 E-0.05 F60
G90
G0 Z5 F300
; 730 PAD305
G0 X45.913 Y49.585 F1200
G1 Z0.2 F300
G91
G1 E0.5 F60
G1 E-0.05 F60
G90
G0 Z5 F300
; 731 PAD306
G0 X45.913 Y50.085 F1200
G1 Z0.2 F300
G91
G1 E0.5 F60
G1 E-0.05 F60
G90
G0 Z5 F300
; 732 PAD307
G0 X44.413 Y51.585 F1200
G1 Z0.2 F300
G91
G1 E0.5 F60
G1 E-0.05 F60
G90
G0 Z5 F300
; 733 PAD308
G0 X43.913 Y51.585 F1200
G1 Z0.2 F300
G91
G1 E0.5 F60
G1 E-0.05 F60
G90
G0 Z5 F300
; 734 PAD309
G0 X43.413 Y51.585 F1200
G1 Z0.2 F300
G91
G1 E0.5 F60
G1 E-0.05 F60
G90
G0 Z5 F300
; 735 PAD310
G0 X42.913 Y51.585 F1200
G1 Z0.2 F300
G91
G1 E0.5 F60
G1 E-0.05 F60
G90
G0 Z5 F300
; 736 PAD311
G0 X42.413 Y51.585 F1200
G1 Z0.2 F300
G91
G1 E0.5 F60
G1 E-0.05 F60
G90
G0 Z5 F300
; 737 PAD312
G0 X41.913 Y51.585 F1200
G1 Z0.2 F300
G91
G1 E0.5 F60
G1 E-0.05 F60
G90
G0 Z5 F300
; 738 PAD313
G0 X41.413 Y51.585 F1200
G1 Z0.2 F300
G91
G1 E0.5 F60
G1 E-0.05 F60
G90
G0 Z5 F300
; 739 PAD314
G0 X40.913 Y51.585 F1200
G1 Z0.2 F300
G91
G1 E0.5 F60
G1 E-0.05 F60
G90
G0 Z5 F300
; 740 PAD315
G0 X40.413 Y51.585 F1200
G1 Z0.2 F300
G91
G1 E0.5 F60
G1 E-0.05 F60
G90
G0 Z5 F300
; 741 PAD316
G0 X39.913 Y51.585 F1200
G1 Z0.2 F300
G91
G1 E0.5 F60
G1 E-0.05 F60
G90
G0 Z5 F300
; 742 PAD317
G0 X39.413 Y51.585 F1200
G1 Z0.2 F300
G91
G1 E0.5 F60
G1 E-0.05 F60
G90
G0 Z5 F300
; 743 PAD318
G0 X38.913 Y51.585 F1200
G1 Z0.2 F300
G91
G1 E0.5 F60
G1 E-0.05 F60
G90
G0 Z5 F300
; 744 PAD319
G0 X37.413 Y50.085 F1200
G1 Z0.2 F300
G91
G1 E0.5 F60
G1 E-0.05 F60
G90
G0 Z5 F300
; 745 PAD320
G0 X37.413 Y49.585 F1200
G1 Z0.2 F300
G91
G1 E0.5 F60
G1 E-0.05 F60
G90
G0 Z5 F300
; 746 PAD321
G0 X37.413 Y49.085 F1200
G1 Z0.2 F300
G91
G1 E0.5 F60
G1 E-0.05 F60
G90
G0 Z5 F300
; 747 PAD322
G0 X37.413 Y48.585 F1200
G1 Z0.2 F300
G91
G1 E0.5 F60
G1 E-0.05 F60
G90
G0 Z5 F300
; 748 PAD323
G0 X37.413 Y48.085 F1200
G1 Z0.2 F300
G91
G1 E0.5 F60
G1 E-0.05 F60
G90
G0 Z5 F300
; 749 PAD324
G0 X37.413 Y47.585 F1200
G1 Z0.2 F300
G91
G1 E0.5 F60
G1 E-0.05 F60
G90
G0 Z5 F300
; 750 PAD325
G0 X37.413 Y47.085 F1200
G1 Z0.2 F300
G91
G1 E0.5 F60
G1 E-0.05 F60
G90
G0 Z5 F300
; 751 PAD326
G0 X37.413 Y46.585 F1200
G1 Z0.2 F300
G91
G1 E0.5 F60
G1 E-0.05 F60
G90
G0 Z5 F300
; 752 PAD327
G0 X37.413 Y46.085 F1200
G1 Z0.2 F300
G91
G1 E0.5 F60
G1 E-0.05 F60
G90
G0 Z5 F300
; 753 PAD328
G0 X37.413 Y45.585 F1200
G1 Z0.2 F300
G91
G1 E0.5 F60
G1 E-0.05 F60
G90
G0 Z5 F300
; 754 PAD329
G0 X37.413 Y45.085 F1200
G1 Z0.2 F300
G91
G1 E0.5 F60
G1 E-0.05 F60
G90
G0 Z5 F300
; 755 PAD330
G0 X37.413 Y44.585 F1200
G1 Z0.2 F300
G91
G1 E0.5 F60
G1 E-0.05 F60
G90
G0 Z5 F300
; 756 PAD331
G0 X38.913 Y43.085 F1200
G1 Z0.2 F300
G91
G1 E0.5 F60
G1 E-0.05 F60
G90
G0 Z5 F300
; 757 PAD332
G0 X39.413 Y43.085 F1200
G1 Z0.2 F300
G91
G1 E0.5 F60
G1 E-0.05 F60
G90
G0 Z5 F300
; 758 PAD333
G0 X39.913 Y43.085 F1200
G1 Z0.2 F300
G91
G1 E0.5 F60
G1 E-0.05 F60
G90
G0 Z5 F300
; 759 PAD334
G0 X40.413 Y43.085 F1200
G1 Z0.2 F300
G91
G1 E0.5 F60
G1 E-0.05 F60
G90
G0 Z5 F300
; 760 PAD335
G0 X40.913 Y43.085 F1200
G1 Z0.2 F300
G91
G1 E0.5 F60
G1 E-0.05 F60
G90
G0 Z5 F300
; 761 PAD336
G0 X41.413 Y43.085 F1200
G1 Z0.2 F300
G91
G1 E0.5 F60
G1 E-0.05 F60
G90
G0 Z5 F300
; 762 PAD337
G0 X41.913 Y43.085 F1200
G1 Z0.2 F300
G91
G1 E0.5 F60
G1 E-0.05 F60
G90
G0 Z5 F300
; 763 PAD338
G0 X42.413 Y43.085 F1200
G1 Z0.2 F300
G91
G1 E0.5 F60
G1 E-0.05 F60
G90
G0 Z5 F300
; 764 PAD339
G0 X42.913 Y43.085 F1200
G1 Z0.2 F300
G91
G1 E0.5 F60
G1 E-0.05 F60
G90
G0 Z5 F300
; 765 PAD340
G0 X43.413 Y43.085 F1200
G1 Z0.2 F300
G91
G1 E0.5 F60
G1 E-0.05 F60
G90
G0 Z5 F300
; 766 PAD341
G0 X43.913 Y43.085 F1200
G1 Z0.2 F300
G91
G1 E0.5 F60
G1 E-0.05 F60
G90
G0 Z5 F300
; 767 PAD342
G0 X44.413 Y43.085 F1200
G1 Z0.2 F300
G91
G1 E0.5 F60
G1 E-0.05 F60
G90
G0 Z5 F300
; 768 PAD343
G0 X13.365 Y35.12 F1200
G1 Z0.2 F300
G92 E0
G1 X15.324 Y35.12 E0.1567 F60
G91
G1 E-0.05 F60
G90
G0 Z5 F300
; 769 PAD343
G0 X15.324 Y35.42 F1200
G1 Z0.2 F300
G92 E0
G1 X13.365 Y35.42 E0.1567 F60
G91
G1 E-0.05 F60
G90
G0 Z5 F300
; 770 PAD344
G0 X13.365 Y36.39 F1200
G1 Z0.2 F300
G92 E0
G1 X15.324 Y36.39 E0.1567 F60
G91
G1 E-0.05 F60
G90
G0 Z5 F300
; 771 PAD344
G0 X15.324 Y36.69 F1200
G1 Z0.2 F300
G92 E0
G1 X13.365 Y36.69 E0.1567 F60
G91
G1 E-0.05 F60
G90
G0 Z5 F300
; 772 PAD345
G0 X13.365 Y37.66 F1200
G1 Z0.2 F300
G92 E0
G1 X15.324 Y37.66 E0.1567 F60
G91
G1 E-0.05 F60
G90
G0 Z5 F300
; 773 PAD345
G0 X15.324 Y37.96 F1200
G1 Z0.2 F300
G92 E0
G1 X13.365 Y37.96 E0.1567 F60
G91
G1 E-0.05 F60
G90
G0 Z5 F300
; 774 PAD346
G0 X13.365 Y38.93 F1200
G1 Z0.2 F300
G92 E0
G1 X15.324 Y38.93 E0.1567 F60
G91
G1 E-0.05 F60
G90
G0 Z5 F300
; 775 PAD346
G0 X15.324 Y39.23 F1200
G1 Z0.2 F300
G92 E0
G1 X13.365 Y39.23 E0.1567 F60
G91
G1 E-0.05 F60
G90
G0 Z5 F300
; 776 PAD347
G0 X6.28 Y35.12 F1200
G1 Z0.2 F300
G92 E0
G1 X8.24 Y35.12 E0.1567 F60
G91
G1 E-0.05 F60
G90
G0 Z5 F300
; 777 PAD347
G0 X8.24 Y35.42 F1200
G1 Z0.2 F300
G92 E0
G1 X6.28 Y35.42 E0.1567 F60
G91
G1 E-0.05 F60
G90
G0 Z5 F300
; 778 PAD348
G0 X6.28 Y36.39 F1200
G1 Z0.2 F300
G92 E0
G1 X8.24 Y36.39 E0.1567 F60
G91
G1 E-0.05 F60
G90
G0 Z5 F300
; 779 PAD348
G0 X8.24 Y36.69 F1200
G1 Z0.2 F300
G92 E0
G1 X6.28 Y36.69 E0.1567 F60
G91
G1 E-0.05 F60
G90
G0 Z5 F300
; 780 PAD349
G0 X6.28 Y37.66 F1200
G1 Z0.2 F300
G92 E0
G1 X8.24 Y37.66 E0.1567 F60
G91
G1 E-0.05 F60
G90
G0 Z5 F300
; 781 PAD349
G0 X8.24 Y37.96 F1200
G1 Z0.2 F300
G92 E0
G1 X6.28 Y37.96 E0.1567 F60
G91
G1 E-0.05 F60
G90
G0 Z5 F300
; 782 PAD350
G0 X6.28 Y38.93 F1200
G1 Z0.2 F300
G92 E0
G1 X8.24 Y38.93 E0.1567 F60
G91
G1 E-0.05 F60
G90
G0 Z5 F300
; 783 PAD350
G0 X8.24 Y39.23 F1200
G1 Z0.2 F300
G92 E0
G1 X6.28 Y39.23 E0.1567 F60
G91
G1 E-0.05 F60
G90
G0 Z5 F300
; 784 PAD351
G0 X13.365 Y28.389 F1200
G1 Z0.2 F300
G92 E0
G1 X15.324 Y28.389 E0.1567 F60
G91
G1 E-0.05 F60
G90
G0 Z5 F300
; 785 PAD351
G0 X15.324 Y28.689 F1200
G1 Z0.2 F300
G92 E0
G1 X13.365 Y28.689 E0.1567 F60
G91
G1 E-0.05 F60
G90
G0 Z5 F300
; 786 PAD352
G0 X13.365 Y29.659 F1200
G1 Z0.2 F300
G92 E0
G1 X15.324 Y29.659 E0.1567 F60
G91
G1 E-0.05 F60
G90
G0 Z5 F300
; 787 PAD352
G0 X15.324 Y29.959 F1200
G1 Z0.2 F300
G92 E0
G1 X13.365 Y29.959 E0.1567 F60
G91
G1 E-0.05 F60
G90
G0 Z5 F300
; 788 PAD353
G0 X13.365 Y30.929 F1200
G1 Z0.2 F300
G92 E0
G1 X15.324 Y30.929 E0.1567 F60
G91
G1 E-0.05 F60
G90
G0 Z5 F300
; 789 PAD353
G0 X15.324 Y31.229 F1200
G1 Z0.2 F300
G92 E0
G1 X13.365 Y31.229 E0.1567 F60
G91
G1 E-0.05 F60
G90
G0 Z5 F300
; 790 PAD354
G0 X13.365 Y32.199 F1200
G1 Z0.2 F300
G92 E0
G1 X15.324 Y32.199 E0.1567 F60
G91
G1 E-0.05 F60
G90
G0 Z5 F300
; 791 PAD354
G0 X15.324 Y32.499 F1200
G1 Z0.2 F300
G92 E0
G1 X13.365 Y32.499 E0.1567 F60
G91
G1 E-0.05 F60
G90
G0 Z5 F300
; 792 PAD355
G0 X6.28 Y28.389 F1200
G1 Z0.2 F300
G92 E0
G1 X8.24 Y28.389 E0.1567 F60
G91
G1 E-0.05 F60
G90
G0 Z5 F300
; 793 PAD355
G0 X8.24 Y28.689 F1200
G1 Z0.2 F300
G92 E0
G1 X6.28 Y28.689 E0.1567 F60
G91
G1 E-0.05 F60
G90
G0 Z5 F300
; 794 PAD356
G0 X6.28 Y29.659 F1200
G1 Z0.2 F300
G92 E0
G1 X8.24 Y29.659 E0.1567 F60
G91
G1 E-0.05 F60
G90
G0 Z5 F300
; 795 PAD356
G0 X8.24 Y29.959 F1200
G1 Z0.2 F300
G92 E0
G1 X6.28 Y29.959 E0.1567 F60
G91
G1 E-0.05 F60
G90
G0 Z5 F300
; 796 PAD357
G0 X6.28 Y30.929 F1200
G1 Z0.2 F300
G92 E0
G1 X8.24 Y30.929 E0.1567 F60
G91
G1 E-0.05 F60
G90
G0 Z5 F300
; 797 PAD357
G0 X8.24 Y31.229 F1200
G1 Z0.2 F300
G92 E0
G1 X6.28 Y31.229 E0.1567 F60
G91
G1 E-0.05 F60
G90
G0 Z5 F300
; 798 PAD358
G0 X6.28 Y32.199 F1200
G1 Z0.2 F300
G92 E0
G1 X8.24 Y32.199 E0.1567 F60
G91
G1 E-0.05 F60
G90
G0 Z5 F300
; 799 PAD358
G0 X8.24 Y32.499 F1200
G1 Z0.2 F300
G92 E0
G1 X6.28 Y32.499 E0.1567 F60
G91
G1 E-0.05 F60
G90
G0 Z5 F300
M84
; End
